{
"type": "FeatureCollection",
"name": "N05-24_RailroadSection2",
"crs": { "type": "name", "properties": { "name": "urn:ogc:def:crs:EPSG::6668" } },
"xy_coordinate_resolution": 1e-09,
"features": [
{ "type": "Feature", "properties": { "N05_001": "2", "N05_002": "北陸線", "N05_003": "西日本旅客鉄道（旧国鉄）", "N05_004": "1882", "N05_005b": "1969", "N05_005e": "2001", "N05_006": "EB02_16203", "N05_007": null, "N05_008": null, "N05_009": null, "N05_010": null }, "geometry": { "type": "LineString", "coordinates": [ 
 [ 137.5995, 36.973875 ], [ 137.60088, 36.97409 ], [ 137.60302, 36.97437 ], [ 137.60508, 36.97465 ], [ 137.60709, 36.97492 ], [ 137.60908, 36.97521 ], [ 137.61119, 36.97551 ], [ 137.6118, 36.97559 ], [ 137.61326, 36.9758 ], [ 137.61534, 36.97608 ], [ 137.61738, 36.97635 ], [ 137.61947, 36.97663 ], [ 137.62192, 36.977 ], [ 137.62237, 36.97707 ], [ 137.62316, 36.9772 ], [ 137.62349, 36.97725 ], [ 137.62361, 36.97727 ], [ 137.624, 36.97733 ], [ 137.62458, 36.97741 ], [ 137.62502, 36.97748 ], [ 137.62555, 36.97756 ], [ 137.62595, 36.97762 ], [ 137.62645, 36.97769 ], [ 137.62689, 36.97775 ], [ 137.62737, 36.97783 ], [ 137.62772, 36.97788 ], [ 137.62814, 36.97795 ], [ 137.62881, 36.97804 ], [ 137.62913, 36.97809 ], [ 137.62965, 36.97817 ], [ 137.63025, 36.97826 ], [ 137.63059, 36.97831 ], [ 137.63118, 36.9784 ], [ 137.63167, 36.97848 ], [ 137.63208, 36.97853 ], [ 137.63284, 36.97865 ], [ 137.63451, 36.97889 ], [ 137.63538, 36.97902 ], [ 137.63583, 36.97908 ], [ 137.63628, 36.97915 ], [ 137.63678, 36.97922 ], [ 137.63743, 36.97932 ], [ 137.63783, 36.97938 ], [ 137.63791, 36.97939 ], [ 137.63826, 36.97944 ], [ 137.63885, 36.97951 ], [ 137.63919, 36.97956 ], [ 137.63955, 36.97961 ], [ 137.64033, 36.97969 ], [ 137.64095, 36.97977 ], [ 137.64177, 36.97985 ], [ 137.6421, 36.9799 ], [ 137.64267, 36.97995 ], [ 137.64321, 36.97999 ], [ 137.64355, 36.98002 ], [ 137.64387, 36.98005 ], [ 137.64466, 36.9801 ], [ 137.64612, 36.9802 ], [ 137.64707, 36.98027 ], [ 137.64794, 36.98033 ], [ 137.64859, 36.98035 ], [ 137.64893, 36.98035 ], [ 137.650485, 36.980445 ], [ 137.65204, 36.98054 ], [ 137.65326, 36.98061 ], [ 137.65453, 36.98069 ], [ 137.65531, 36.98074 ], [ 137.65584, 36.98078 ], [ 137.65636, 36.98084 ], [ 137.65693, 36.98093 ], [ 137.65749, 36.98104 ], [ 137.65808, 36.98117 ], [ 137.65861, 36.98129 ], [ 137.65914, 36.98141 ], [ 137.65929, 36.98146 ], [ 137.65968, 36.98156 ], [ 137.66024, 36.98171 ], [ 137.66074, 36.98185 ], [ 137.66127, 36.982 ], [ 137.66184, 36.98215 ], [ 137.66234, 36.98229 ], [ 137.66286, 36.98243 ], [ 137.66338, 36.98257 ], [ 137.66394, 36.98272 ], [ 137.66447, 36.98287 ], [ 137.66499, 36.98302 ], [ 137.66556, 36.98318 ], [ 137.66608, 36.98332 ], [ 137.66659, 36.98346 ], [ 137.66715, 36.98361 ], [ 137.66768, 36.98376 ], [ 137.6682, 36.9839 ], [ 137.66872, 36.98405 ], [ 137.66929, 36.9842 ], [ 137.66979, 36.98434 ], [ 137.67034, 36.98449 ], [ 137.67083, 36.98462 ], [ 137.67253, 36.98509 ], [ 137.67407, 36.98551 ], [ 137.67474, 36.9857 ], [ 137.67521, 36.98583 ], [ 137.67728, 36.9864 ], [ 137.67832, 36.98668 ], [ 137.67993, 36.98712 ], [ 137.68095, 36.9874 ], [ 137.68208, 36.98771 ], [ 137.68307, 36.98799 ], [ 137.68365, 36.98815 ], [ 137.6842, 36.9883 ], [ 137.68473, 36.98844 ], [ 137.68524, 36.98857 ], [ 137.68584, 36.98874 ], [ 137.68633, 36.98887 ], [ 137.68686, 36.98902 ], [ 137.6874, 36.98917 ], [ 137.68795, 36.98931 ], [ 137.68852, 36.98946 ], [ 137.68905, 36.98962 ], [ 137.68958, 36.98976 ], [ 137.69009, 36.9899 ], [ 137.69059, 36.99003 ], [ 137.69111, 36.99018 ], [ 137.69163, 36.99032 ], [ 137.69218, 36.99048 ], [ 137.69269, 36.99061 ], [ 137.69293, 36.99068 ], [ 137.69319, 36.99076 ], [ 137.69378, 36.99092 ], [ 137.69435, 36.99107 ], [ 137.69479, 36.99119 ], [ 137.6952, 36.99131 ], [ 137.69595, 36.99151 ], [ 137.69651, 36.99166 ], [ 137.69677, 36.99173 ], [ 137.697, 36.9918 ], [ 137.69742, 36.99191 ], [ 137.6979, 36.99204 ], [ 137.69844, 36.9922 ], [ 137.69899, 36.99237 ], [ 137.69951, 36.99252 ], [ 137.70002, 36.99269 ], [ 137.70057, 36.99292 ], [ 137.70108, 36.99313 ], [ 137.70157, 36.99335 ], [ 137.70208, 36.99359 ], [ 137.70264, 36.99383 ], [ 137.70317, 36.99406 ], [ 137.70347, 36.99419 ], [ 137.70417, 36.99456 ], [ 137.70468, 36.9948 ], [ 137.70513, 36.99502 ], [ 137.7056, 36.99524 ], [ 137.70612, 36.99548 ], [ 137.70658, 36.9957 ], [ 137.70702, 36.99591 ], [ 137.70748, 36.99612 ], [ 137.70762, 36.99617 ], [ 137.70814, 36.99636 ], [ 137.70975, 36.99691 ], [ 137.71217, 36.99777 ], [ 137.71252, 36.99791 ], [ 137.71287, 36.99803 ], [ 137.71315, 36.99813 ], [ 137.71353, 36.99825 ], [ 137.71381, 36.99833 ], [ 137.71409, 36.9984 ], [ 137.71427, 36.99844 ], [ 137.71448, 36.99846 ], [ 137.71476, 36.99849 ], [ 137.71486, 36.99849 ], [ 137.71497, 36.9985 ], [ 137.71523, 36.99853 ], [ 137.71719, 36.99867 ], [ 137.7174, 36.99869 ], [ 137.71794, 36.9987 ], [ 137.71848, 36.99873 ], [ 137.71903, 36.99876 ], [ 137.71956, 36.99877 ], [ 137.72016, 36.9988 ], [ 137.72068, 36.99883 ], [ 137.72125, 36.99885 ], [ 137.72184, 36.99888 ], [ 137.72241, 36.99889 ], [ 137.72299, 36.99892 ], [ 137.7236, 36.99896 ], [ 137.72407, 36.999 ], [ 137.72433, 36.99902 ], [ 137.72476, 36.99908 ], [ 137.72531, 36.99917 ], [ 137.72559, 36.99922 ], [ 137.72578, 36.99927 ], [ 137.72599, 36.99932 ], [ 137.72604, 36.99933 ], [ 137.72633, 36.99943 ], [ 137.7265, 36.99949 ], [ 137.72679, 36.99959 ], [ 137.72705, 36.99968 ], [ 137.72724, 36.99975 ], [ 137.72756, 36.99989 ], [ 137.72796, 37.00007 ], [ 137.7281, 37.00016 ], [ 137.72841, 37.00037 ], [ 137.72853, 37.00047 ], [ 137.72887, 37.00076 ], [ 137.72934, 37.00115 ], [ 137.72975, 37.00151 ], [ 137.73017, 37.00188 ], [ 137.73053, 37.00219 ], [ 137.73093, 37.00253 ], [ 137.73157, 37.00303 ], [ 137.73172, 37.00311 ], [ 137.73198, 37.00325 ], [ 137.73233, 37.00343 ], [ 137.73259, 37.00363 ], [ 137.73316, 37.00411 ], [ 137.73381, 37.00464 ], [ 137.73461, 37.00532 ], [ 137.7349, 37.00555 ], [ 137.73514, 37.00572 ], [ 137.73548, 37.00594 ], [ 137.73571, 37.00607 ], [ 137.7359, 37.00617 ], [ 137.73615, 37.00627 ], [ 137.73637, 37.00635 ], [ 137.73666, 37.00645 ], [ 137.73743, 37.00667 ], [ 137.73803, 37.00685 ], [ 137.73863, 37.00703 ], [ 137.73913, 37.00717 ], [ 137.73955, 37.00726 ], [ 137.73983, 37.00732 ], [ 137.74043, 37.00744 ], [ 137.74063, 37.00748 ], [ 137.74074, 37.00749 ], [ 137.74226, 37.00766 ], [ 137.74327, 37.00788 ], [ 137.74441, 37.00821 ], [ 137.74594, 37.00878 ], [ 137.74691, 37.00917 ], [ 137.74779, 37.00949 ], [ 137.75208, 37.01106 ], [ 137.75337, 37.01154 ], [ 137.75508, 37.01216 ], [ 137.75621, 37.01257 ], [ 137.75702, 37.01286 ], [ 137.75723, 37.01294 ], [ 137.7575, 37.01306 ], [ 137.75783, 37.01316 ], [ 137.75907, 37.01366 ], [ 137.75975, 37.01395 ], [ 137.7604, 37.01418 ], [ 137.76119, 37.01442 ], [ 137.76239, 37.01481 ], [ 137.76526, 37.01577 ], [ 137.76626, 37.01611 ], [ 137.76881, 37.01697 ], [ 137.77024, 37.0174 ], [ 137.77119, 37.01769 ], [ 137.77207, 37.01795 ], [ 137.77275, 37.01815 ], [ 137.77546, 37.01927 ], [ 137.77583, 37.01942 ], [ 137.77628, 37.01958 ], [ 137.77752, 37.01993 ], [ 137.77987, 37.02057 ], [ 137.78151, 37.02097 ], [ 137.7827, 37.02124 ], [ 137.78465, 37.02172 ], [ 137.78595, 37.02201 ], [ 137.78658, 37.02217 ], [ 137.78701, 37.02226 ], [ 137.78774, 37.02235 ], [ 137.78809, 37.02239 ], [ 137.78926, 37.02242 ], [ 137.79011, 37.02243 ], [ 137.79145, 37.02244 ], [ 137.79179, 37.02245 ], [ 137.79457, 37.02247 ], [ 137.795815, 37.0225 ], [ 137.79706, 37.02253 ], [ 137.79746, 37.02256 ], [ 137.79769, 37.02259 ], [ 137.79792, 37.02266 ], [ 137.79829, 37.02277 ], [ 137.79951, 37.0232 ], [ 137.80102, 37.02375 ], [ 137.80158, 37.02393 ], [ 137.802, 37.02406 ], [ 137.80277, 37.02426 ], [ 137.80319, 37.02434 ], [ 137.80356, 37.02438 ], [ 137.80415, 37.02438 ], [ 137.8048, 37.02434 ], [ 137.80557, 37.02427 ], [ 137.8063, 37.0242 ], [ 137.80708, 37.02421 ], [ 137.80777, 37.02423 ], [ 137.80837, 37.02428 ], [ 137.80858, 37.02431 ], [ 137.80894, 37.02436 ], [ 137.80945, 37.02447 ], [ 137.81033, 37.02467 ], [ 137.8106, 37.02474 ], [ 137.81169, 37.02499 ], [ 137.81201, 37.02506 ], [ 137.81279, 37.02524 ], [ 137.8148, 37.02568 ], [ 137.81539, 37.02583 ], [ 137.81852, 37.02707 ], [ 137.8195, 37.02746 ], [ 137.82035, 37.02779 ], [ 137.82066, 37.02791 ], [ 137.82101, 37.02803 ], [ 137.82131, 37.02812 ], [ 137.82179, 37.02823 ], [ 137.82214, 37.0283 ], [ 137.8223, 37.02832 ], [ 137.82266, 37.02838 ], [ 137.82322, 37.02844 ], [ 137.82361, 37.02847 ], [ 137.82457, 37.02848 ], [ 137.82796, 37.02844 ], [ 137.82927, 37.02842 ], [ 137.82987, 37.02843 ], [ 137.83093, 37.02848 ], [ 137.83173, 37.02854 ], [ 137.83222, 37.02864 ], [ 137.83262, 37.02875 ], [ 137.83299, 37.02885 ], [ 137.83334, 37.02898 ], [ 137.83441, 37.02944 ], [ 137.83465, 37.02956 ], [ 137.8355, 37.02995 ], [ 137.83587, 37.03012 ], [ 137.83613, 37.03024 ], [ 137.83861, 37.03138 ], [ 137.83987, 37.03195 ], [ 137.84123, 37.03258 ], [ 137.84258, 37.03319 ], [ 137.8429, 37.03336 ], [ 137.84394, 37.03392 ], [ 137.84473, 37.03445 ], [ 137.84496, 37.03461 ], [ 137.8451, 37.0347 ], [ 137.84665, 37.0358 ], [ 137.85213, 37.03969 ], [ 137.85315, 37.04042 ], [ 137.85331, 37.04055 ], [ 137.85345, 37.04063 ], [ 137.85359, 37.04073 ], [ 137.85428, 37.04116 ], [ 137.855, 37.04159 ], [ 137.85551, 37.04182 ], [ 137.85591, 37.04197 ], [ 137.85643, 37.0421 ], [ 137.85677, 37.04219 ], [ 137.85739, 37.04238 ], [ 137.85908, 37.04283 ], [ 137.85954, 37.04296 ], [ 137.86085, 37.04331 ], [ 137.86107, 37.04338 ], [ 137.86258, 37.043805 ], [ 137.86409, 37.04423 ], [ 137.86425, 37.04427 ], [ 137.86447, 37.04434 ], [ 137.86699, 37.04504 ], [ 137.86893, 37.04557 ], [ 137.86986, 37.04582 ], [ 137.8699, 37.04583 ], [ 137.87018, 37.04591 ], [ 137.8719, 37.0464 ], [ 137.87405, 37.04701 ], [ 137.87469, 37.0472 ], [ 137.87878, 37.04835 ], [ 137.88453, 37.04995 ], [ 137.8854, 37.05019 ], [ 137.8859, 37.05033 ], [ 137.89084, 37.05168 ], [ 137.89329, 37.05237 ], [ 137.89446, 37.0527 ], [ 137.89788, 37.05364 ], [ 137.89834, 37.05382 ], [ 137.90219, 37.05558 ], [ 137.90277, 37.05586 ], [ 137.90301, 37.05596 ], [ 137.90349, 37.05615 ], [ 137.9041, 37.05634 ], [ 137.9045, 37.05644 ], [ 137.9053, 37.05656 ], [ 137.905775, 37.056617 ], [ 137.90588, 37.05663 ], [ 137.90706, 37.05669 ], [ 137.90752, 37.05671 ], [ 137.90833, 37.05677 ], [ 137.90866, 37.05678 ], [ 137.90943, 37.05683 ], [ 137.90988, 37.05688 ], [ 137.91022, 37.05695 ], [ 137.91052, 37.05703 ], [ 137.91093, 37.05717 ], [ 137.911614, 37.05748 ], [ 137.912127, 37.057782 ], [ 137.912524, 37.058075 ], [ 137.913602, 37.058981 ], [ 137.914039, 37.059444 ], [ 137.914552, 37.060048 ], [ 137.914813, 37.060383 ], [ 137.91513, 37.06075 ], [ 137.91542, 37.06103 ], [ 137.91566, 37.06122 ], [ 137.91583, 37.06137 ], [ 137.91614, 37.0616 ], [ 137.9164, 37.06176 ], [ 137.91729, 37.06228 ], [ 137.91972, 37.0637 ], [ 137.92135, 37.06463 ], [ 137.92281, 37.06548 ], [ 137.92304, 37.06561 ], [ 137.92516, 37.06684 ], [ 137.92709, 37.06796 ], [ 137.9275, 37.06816 ], [ 137.92874, 37.06874 ], [ 137.92899, 37.06886 ], [ 137.92917, 37.06894 ], [ 137.92936, 37.06903 ], [ 137.92961, 37.06913 ], [ 137.93076, 37.06967 ], [ 137.93159, 37.07006 ], [ 137.93275, 37.07058 ], [ 137.93352, 37.07093 ], [ 137.93488, 37.07154 ], [ 137.93691, 37.07243 ], [ 137.93734, 37.07262 ], [ 137.93785, 37.07287 ], [ 137.93802, 37.07296 ], [ 137.93891, 37.07345 ], [ 137.93931, 37.07373 ], [ 137.93945, 37.07385 ], [ 137.939804, 37.074156 ], [ 137.93989, 37.07423 ], [ 137.94014, 37.07448 ], [ 137.94035, 37.07464 ], [ 137.94061, 37.07477 ], [ 137.94429, 37.07643 ], [ 137.94728, 37.07777 ], [ 137.95022, 37.0791 ], [ 137.957, 37.0821 ], [ 137.95712, 37.08215 ], [ 137.96357, 37.08501 ], [ 137.96551, 37.08588 ], [ 137.96655, 37.08636 ], [ 137.96682, 37.08651 ], [ 137.96737, 37.08675 ], [ 137.96812, 37.08708 ], [ 137.96838, 37.08721 ], [ 137.96848, 37.08725 ], [ 137.97003, 37.08792 ], [ 137.97213, 37.0888 ], [ 137.9736, 37.08944 ], [ 137.97468, 37.08994 ], [ 137.97551, 37.09032 ], [ 137.9771, 37.09104 ], [ 137.97823, 37.09153 ], [ 137.97862, 37.0917 ], [ 137.97957, 37.09213 ], [ 137.98011, 37.09237 ], [ 137.98108, 37.09279 ], [ 137.98159, 37.09303 ], [ 137.98251, 37.09344 ], [ 137.98309, 37.0937 ], [ 137.98388, 37.09409 ], [ 137.98399, 37.09415 ], [ 137.9859, 37.09498 ], [ 137.98723, 37.09556 ], [ 137.98795, 37.09585 ], [ 137.988402, 37.096008 ], [ 137.98855, 37.09606 ], [ 137.98903, 37.09621 ], [ 137.9896, 37.09638 ], [ 137.99028, 37.09657 ], [ 137.99062, 37.09665 ], [ 137.99095, 37.09673 ], [ 137.99133, 37.09683 ], [ 137.99166, 37.09692 ], [ 137.99258, 37.09713 ], [ 137.99366, 37.0974 ], [ 137.99479, 37.09768 ], [ 137.99558, 37.09786 ], [ 137.9964, 37.09806 ], [ 137.99689, 37.09816 ], [ 137.99919, 37.09875 ], [ 138.00233, 37.09955 ], [ 138.00436, 37.10008 ], [ 138.00623, 37.10057 ], [ 138.0088, 37.10122 ], [ 138.01495, 37.10272 ], [ 138.0158, 37.10292 ], [ 138.01759, 37.10335 ], [ 138.01892, 37.10366 ], [ 138.02048, 37.10403 ], [ 138.0211, 37.10417 ], [ 138.02557, 37.1053 ], [ 138.02985, 37.10637 ], [ 138.03488, 37.10761 ], [ 138.03617, 37.10794 ], [ 138.03705, 37.10816 ], [ 138.03769, 37.1083 ], [ 138.0387, 37.10856 ], [ 138.03978, 37.10894 ], [ 138.04011, 37.10906 ], [ 138.04086, 37.10936 ], [ 138.04182, 37.10985 ], [ 138.0422, 37.11007 ], [ 138.0429, 37.11049 ], [ 138.04339, 37.11083 ], [ 138.04356, 37.11092 ], [ 138.04447, 37.11157 ], [ 138.04501, 37.11209 ], [ 138.04547, 37.11252 ], [ 138.04627, 37.11327 ], [ 138.048, 37.11498 ], [ 138.04988, 37.11682 ], [ 138.05116, 37.11808 ], [ 138.05226, 37.11913 ], [ 138.05256, 37.11945 ], [ 138.05264, 37.11953 ], [ 138.05315, 37.12001 ], [ 138.05424, 37.1211 ], [ 138.056, 37.12283 ], [ 138.05769, 37.12452 ], [ 138.05963, 37.12639 ], [ 138.060575, 37.127325 ], [ 138.06152, 37.12826 ], [ 138.06498, 37.13164 ], [ 138.06715, 37.13378 ], [ 138.06847, 37.13508 ], [ 138.06875, 37.13533 ], [ 138.06988, 37.13645 ], [ 138.07007, 37.1366 ], [ 138.07037, 37.13693 ], [ 138.07077, 37.13732 ], [ 138.07155, 37.13812 ], [ 138.07305, 37.13959 ], [ 138.07421, 37.14072 ], [ 138.07437, 37.14087 ], [ 138.07557, 37.14206 ], [ 138.07571, 37.14219 ], [ 138.07639, 37.14285 ], [ 138.07761, 37.14405 ], [ 138.07802, 37.14442 ], [ 138.07944, 37.14579 ], [ 138.08083, 37.14717 ], [ 138.08168, 37.14801 ], [ 138.08281, 37.14912 ], [ 138.08293, 37.14924 ], [ 138.0843, 37.15057 ], [ 138.08497, 37.15126 ], [ 138.08542, 37.15171 ], [ 138.08584, 37.1521 ], [ 138.08621, 37.15243 ], [ 138.08707, 37.15314 ], [ 138.08781, 37.15366 ], [ 138.08858, 37.15414 ], [ 138.08956, 37.15465 ], [ 138.09007, 37.15493 ], [ 138.0908, 37.15524 ], [ 138.09108, 37.15535 ], [ 138.09118, 37.15538 ], [ 138.09158, 37.15551 ], [ 138.09182, 37.15558 ], [ 138.09232, 37.15572 ], [ 138.092668, 37.155816 ], [ 138.09279, 37.15585 ], [ 138.09364, 37.15603 ], [ 138.09429, 37.15614 ], [ 138.09451, 37.15619 ], [ 138.09579, 37.15641 ], [ 138.09702, 37.15661 ], [ 138.09877, 37.15694 ], [ 138.10098, 37.15733 ], [ 138.10281, 37.15763 ], [ 138.10323, 37.1577 ], [ 138.10448, 37.15792 ], [ 138.10826, 37.15856 ], [ 138.11032, 37.15889 ], [ 138.11102, 37.15901 ], [ 138.11216, 37.15919 ], [ 138.1158, 37.15978 ], [ 138.12187, 37.16083 ], [ 138.12253, 37.16094 ], [ 138.12319, 37.16106 ], [ 138.12453, 37.16128 ], [ 138.1257, 37.16147 ], [ 138.12683, 37.16167 ], [ 138.12835, 37.16194 ], [ 138.1294, 37.16212 ], [ 138.13119, 37.16242 ], [ 138.13231, 37.16261 ], [ 138.13272, 37.16267 ], [ 138.13333, 37.16276 ], [ 138.13405, 37.16289 ], [ 138.13412, 37.1629 ], [ 138.13451, 37.16296 ], [ 138.13587, 37.16318 ], [ 138.136665, 37.16332 ], [ 138.13746, 37.16346 ], [ 138.13811, 37.16352 ], [ 138.13881, 37.16354 ], [ 138.13907, 37.16352 ], [ 138.14013, 37.1634 ], [ 138.14081, 37.16334 ], [ 138.14106, 37.16333 ], [ 138.14133, 37.16333 ], [ 138.14233, 37.16329 ], [ 138.1435, 37.1633 ], [ 138.14371, 37.16329 ], [ 138.14444, 37.16322 ], [ 138.14468, 37.16318 ], [ 138.14506, 37.16309 ], [ 138.14544, 37.16297 ], [ 138.14551, 37.16295 ], [ 138.14557, 37.16293 ], [ 138.14589, 37.16281 ], [ 138.14655, 37.16253 ], [ 138.14665, 37.16249 ], [ 138.14688, 37.16234 ], [ 138.14723, 37.16212 ], [ 138.14769, 37.16177 ], [ 138.14795, 37.16157 ], [ 138.14798, 37.16155 ], [ 138.14873, 37.16096 ], [ 138.14889, 37.16083 ], [ 138.14915, 37.1607 ], [ 138.14933, 37.16061 ], [ 138.14978, 37.16046 ], [ 138.15024, 37.1603 ], [ 138.15073, 37.16017 ], [ 138.15182, 37.15991 ], [ 138.15278, 37.15975 ], [ 138.1534, 37.15968 ], [ 138.15405, 37.15967 ], [ 138.15458, 37.15967 ], [ 138.15495, 37.1597 ], [ 138.15555, 37.15978 ], [ 138.15617, 37.15989 ], [ 138.15679, 37.16002 ], [ 138.15742, 37.16019 ], [ 138.15798, 37.16035 ], [ 138.15832, 37.16045 ], [ 138.1584, 37.16048 ], [ 138.15893, 37.1607 ], [ 138.15924, 37.16084 ], [ 138.15966, 37.16106 ], [ 138.16006, 37.16125 ], [ 138.1603, 37.16133 ], [ 138.16073, 37.16141 ], [ 138.16149, 37.16148 ], [ 138.16256, 37.16149 ], [ 138.16321, 37.16149 ], [ 138.16463, 37.16143 ], [ 138.16606, 37.16139 ], [ 138.16704, 37.16135 ], [ 138.16788, 37.1613 ], [ 138.16854, 37.1613 ], [ 138.16913, 37.16134 ], [ 138.16953, 37.16139 ], [ 138.17006, 37.16149 ], [ 138.17142, 37.16177 ], [ 138.17286, 37.16212 ], [ 138.173915, 37.16239 ], [ 138.17497, 37.16266 ], [ 138.17535, 37.16274 ], [ 138.17659, 37.16302 ], [ 138.17783, 37.1633 ], [ 138.17907, 37.16361 ], [ 138.18032, 37.16391 ], [ 138.18099, 37.16405 ], [ 138.18168, 37.1642 ], [ 138.18234, 37.16433 ], [ 138.18263, 37.16436 ], [ 138.18321, 37.1644 ], [ 138.18375, 37.16438 ], [ 138.18436, 37.16437 ], [ 138.18506, 37.1643 ], [ 138.18584, 37.16419 ], [ 138.18619, 37.16412 ], [ 138.18643, 37.16406 ], [ 138.18682, 37.16393 ], [ 138.18702, 37.16388 ], [ 138.18735, 37.1638 ], [ 138.18816, 37.16358 ], [ 138.18922, 37.16327 ], [ 138.19027, 37.16296 ], [ 138.19132, 37.16266 ], [ 138.19236, 37.16237 ], [ 138.19341, 37.16206 ], [ 138.19432, 37.16181 ], [ 138.19446, 37.16177 ], [ 138.1955, 37.16148 ], [ 138.19655, 37.16118 ], [ 138.1976, 37.16089 ], [ 138.19865, 37.16058 ], [ 138.19972, 37.16026 ], [ 138.20076, 37.16001 ], [ 138.20138, 37.15988 ], [ 138.20251, 37.15973 ], [ 138.20312, 37.15964 ], [ 138.20367, 37.1596 ], [ 138.20432, 37.15955 ], [ 138.20498, 37.15953 ], [ 138.20612, 37.15951 ], [ 138.20783, 37.15946 ], [ 138.20946, 37.15941 ], [ 138.21102, 37.15938 ], [ 138.21215, 37.15934 ], [ 138.21329, 37.15932 ], [ 138.21451, 37.15929 ], [ 138.21566, 37.15927 ], [ 138.21606, 37.15927 ], [ 138.21745, 37.15928 ], [ 138.21834, 37.15931 ], [ 138.21899, 37.15938 ], [ 138.21956, 37.15948 ], [ 138.22045, 37.15969 ], [ 138.22106, 37.15984 ], [ 138.22205, 37.16015 ], [ 138.22279, 37.16042 ], [ 138.22433, 37.16114 ], [ 138.22611, 37.16202 ], [ 138.22842, 37.16314 ], [ 138.22897, 37.16341 ], [ 138.22954, 37.16369 ], [ 138.23082, 37.16432 ], [ 138.23196, 37.16487 ], [ 138.23314, 37.16544 ], [ 138.23436, 37.16604 ], [ 138.23573, 37.16671 ], [ 138.23676, 37.16722 ], [ 138.23733, 37.16755 ], [ 138.23787, 37.16783 ], [ 138.2392, 37.16854 ], [ 138.23944, 37.16867 ], [ 138.24087, 37.16945 ], [ 138.24128, 37.1697 ]
,
[ 138.242233, 37.170258 ]
]}}
]
}
