{
"type": "FeatureCollection",
"name": "N05-24_RailroadSection2",
"crs": { "type": "name", "properties": { "name": "urn:ogc:def:crs:EPSG::6668" } },
"xy_coordinate_resolution": 1e-09,
"features": [
{ "type": "Feature", "properties": { "N05_001": "2", "N05_002": "信越線", "N05_003": "東日本旅客鉄道（旧国鉄）", "N05_004": "1885", "N05_005b": "1958", "N05_005e": "1961", "N05_006": "EB02_16215", "N05_007": null, "N05_008": null, "N05_009": null, "N05_010": null }, "geometry": { "type": "LineString", "coordinates": [ 
[ 138.18885, 36.64346 ], [ 138.18778, 36.64276 ], [ 138.18602, 36.64164 ], [ 138.18422, 36.64051 ], [ 138.18361, 36.64012 ], [ 138.18304, 36.63975 ], [ 138.18239, 36.63937 ], [ 138.1816, 36.63904 ], [ 138.18097, 36.63885 ], [ 138.18057, 36.63872 ], [ 138.17998, 36.63859 ], [ 138.17952, 36.63851 ], [ 138.17836, 36.63832 ], [ 138.1765, 36.63797 ], [ 138.17575, 36.63778 ], [ 138.17476, 36.63741 ], [ 138.17386, 36.63703 ], [ 138.17325, 36.63674 ], [ 138.17136, 36.63565 ], [ 138.17111, 36.6355 ], [ 138.16868, 36.63405 ], [ 138.16753, 36.63338 ], [ 138.1661, 36.63261 ], [ 138.16529, 36.63215 ], [ 138.16392, 36.63141 ], [ 138.16226, 36.63051 ], [ 138.16182, 36.63027 ], [ 138.16138, 36.63003 ], [ 138.16074, 36.62969 ], [ 138.16023, 36.6294 ], [ 138.15926, 36.62888 ], [ 138.15791, 36.62813 ], [ 138.15672, 36.62749 ], [ 138.15578, 36.62694 ], [ 138.15519, 36.62657 ], [ 138.1547, 36.62617 ], [ 138.15423, 36.62572 ], [ 138.15404, 36.62548 ], [ 138.15387, 36.62519 ], [ 138.15369, 36.62482 ], [ 138.15357, 36.62454 ], [ 138.15342, 36.62411 ], [ 138.15324, 36.6235 ], [ 138.15302, 36.62276 ], [ 138.15251, 36.62104 ], [ 138.15204, 36.6194 ], [ 138.15176, 36.61848 ], [ 138.1512, 36.61629 ], [ 138.15089, 36.61498 ], [ 138.1507, 36.61409 ], [ 138.15051, 36.6132 ], [ 138.15035, 36.61239 ], [ 138.14986, 36.60995 ], [ 138.14965, 36.60894 ], [ 138.14956, 36.60851 ], [ 138.14945, 36.60807 ], [ 138.14893, 36.6056 ], [ 138.14877, 36.60489 ], [ 138.14858, 36.60402 ], [ 138.14853, 36.60382 ], [ 138.14852, 36.60377 ], [ 138.14781, 36.60186 ], [ 138.14697, 36.59967 ], [ 138.14635, 36.59809 ], [ 138.14586, 36.59686 ], [ 138.14521, 36.59522 ], [ 138.14508, 36.59488 ], [ 138.14495, 36.59454 ], [ 138.1438, 36.59163 ], [ 138.14325, 36.59021 ], [ 138.14283, 36.58908 ], [ 138.14226, 36.58765 ], [ 138.14177, 36.58643 ], [ 138.14074, 36.58387 ], [ 138.1403, 36.58277 ], [ 138.1398, 36.58144 ], [ 138.13936, 36.58034 ], [ 138.13861, 36.5784 ], [ 138.138127, 36.577106 ]
 ] } }
]
}
