{
"type": "FeatureCollection",
"name": "N05-24_Station2",
"crs": { "type": "name", "properties": { "name": "urn:ogc:def:crs:EPSG::6668" } },
"xy_coordinate_resolution": 1e-09,
"features": [
{ "type": "Feature", "properties": { "N05_001": "2", "N05_002": "信越線", "N05_003": "東日本旅客鉄道（旧国鉄）", "N05_004": "1888", "N05_005b": "1950", "N05_005e": "9999", "N05_006": "EB03_16215005", "N05_007": null, "N05_008": null, "N05_009": null, 
"N05_011": "長野", "platform": "5", 
"desc":"1981（昭和56）年2月27日（金）<br>1342M：長野→小諸<br>8番線？<br>1342M：長野→小諸<br>5番線？<br>1351　12分遅発", 
"img": [ ],
"hensei": "1342M.png",
"stopStation": "nagano_station.jpg",
"character": "kuha115shonan_left.png"
 }, "geometry": { "type": "Point", "coordinates": [ 138.18885, 36.64346 ] } },
{ "type": "Feature", "properties": { "N05_001": "2", "N05_002": "信越線", "N05_003": "東日本旅客鉄道（旧国鉄）", "N05_004": "1888", "N05_005b": "1950", "N05_005e": "9999", "N05_006": "EB03_16215001", "N05_007": null, "N05_008": null, "N05_009": null, 
"N05_011": "篠ノ井", "platform": "1", 
"desc":"1981（昭和56）年2月27日（金）<br>1342M 長野→小諸<br>1番線<br>1401　12分遅着<br>入場券と妙高4号指定券購入。<br>妙高4号45分、下り赤倉40分、下り信州1号30分の遅延。<br>14:30～14:58の間に長野行L特急しなの通過。<br>15:12　大阪行L特急しなの運転停車（多数のスキーヤ乗車）。時刻表ではしなのが赤倉より名古屋先着。<br>長野方面は429Mが定刻着。直後に到着の信州1号が429Mより先発。", 
"img": [ "shinonoi_ticket.jpg", "shinonoi_11.jpg"],
"hensei": "1342M.png",
"stopStation": "shinonoi_station.jpg",
"character": "kuha115shonan_left.png"
 }, "geometry": { "type": "Point", "coordinates": [ 138.138127, 36.577106 ] } }
]
}
