{
"type": "FeatureCollection",
"name": "N05-24_RailroadSection2",
"crs": { "type": "name", "properties": { "name": "urn:ogc:def:crs:EPSG::6668" } },
"xy_coordinate_resolution": 1e-09,
"features": [
{ "type": "Feature", "properties": { "N05_001": "2", "N05_002": "信越線", "N05_003": "東日本旅客鉄道（旧国鉄）", "N05_004": "1885", "N05_005b": "1958", "N05_005e": "1961", "N05_006": "EB02_16215", "N05_007": null, "N05_008": null, "N05_009": null, "N05_010": null }, "geometry": { "type": "LineString", "coordinates": [ 
[ 139.624276, 35.906342 ], [ 139.624843, 35.904889 ], [ 139.625237, 35.903928 ], [ 139.625855, 35.902738 ], [ 139.62668, 35.90163 ], [ 139.62711, 35.90105 ], [ 139.62768, 35.90037 ], [ 139.62785, 35.9002 ], [ 139.62814, 35.89993 ], [ 139.62883, 35.8993 ], [ 139.63006, 35.8982 ], [ 139.63063, 35.89766 ], [ 139.63094, 35.89732 ], [ 139.63143, 35.89684 ], [ 139.63143, 35.89683 ], [ 139.63177, 35.89646 ], [ 139.63259, 35.89546 ], [ 139.63308, 35.89478 ], [ 139.6339, 35.893595 ], [ 139.63472, 35.89241 ], [ 139.63516, 35.89175 ], [ 139.63546, 35.89128 ], [ 139.63591, 35.89049 ], [ 139.63618, 35.89002 ], [ 139.63652, 35.88937 ], [ 139.63679, 35.88883 ], [ 139.63713, 35.88809 ], [ 139.63745, 35.88731 ], [ 139.63757, 35.88706 ], [ 139.63805, 35.88623 ], [ 139.63847, 35.88546 ], [ 139.63864, 35.88514 ], [ 139.63899, 35.884375 ], [ 139.63934, 35.88361 ], [ 139.63971, 35.88269 ], [ 139.64005, 35.88185 ], [ 139.64068, 35.88036 ], [ 139.64108, 35.87941 ], [ 139.64167, 35.87801 ], [ 139.64201, 35.87714 ], [ 139.64247, 35.87611 ], [ 139.64263, 35.87575 ], [ 139.64286, 35.8753 ], [ 139.64307, 35.87494 ], [ 139.64327, 35.87463 ], [ 139.64371, 35.87409 ], [ 139.64423, 35.87356 ], [ 139.64498, 35.8729 ], [ 139.64575, 35.8722 ], [ 139.64652, 35.8715 ], [ 139.64852, 35.86971 ], [ 139.64947, 35.86888 ], [ 139.65002, 35.8684 ], [ 139.65072, 35.86775 ], [ 139.65116, 35.86734 ], [ 139.65158, 35.86691 ], [ 139.65188, 35.86664 ], [ 139.65214, 35.86629 ], [ 139.65231, 35.86603 ], [ 139.65267, 35.8655 ], [ 139.65336, 35.86448 ], [ 139.65392, 35.86365 ], [ 139.65487, 35.86222 ], [ 139.65532, 35.86155 ], [ 139.65551, 35.86123 ], [ 139.65575, 35.86084 ], [ 139.65617, 35.86017 ], [ 139.65666, 35.85936 ], [ 139.657145, 35.858565 ]
] } }
]
}
