{
"type": "FeatureCollection",
"name": "N05-24_Station2",
"crs": { "type": "name", "properties": { "name": "urn:ogc:def:crs:EPSG::6668" } },
"xy_coordinate_resolution": 1e-09,
"features": [
{ "type": "Feature", "properties": { "N05_001": "2", "N05_002": "東北線", "N05_003": "東日本旅客鉄道（旧国鉄）", "N05_004": "1883", "N05_005b": "1950", "N05_005e": "9999", "N05_006": "EB03_12207018", "N05_007": null, "N05_008": null, "N05_009": null, 
"N05_011": "浦和", "platform": "3", 
"desc":"1981（昭和56）年2月27日（金）<br>県庁所在地の駅としては大津並みに小さいが、大津と違い浦和は急行が通過。<br>926Mを待つ間、八甲田・ばんだい通過。ばんだいは乗車率100%。<br>926M：前橋→上野<br>3番線<br>1948　23分遅発", 
"img": [ ],
"hensei": "926M.jpg",
"stopStation": "urawa_station.jpg",
"character": "kuha115shonan_left.png"
 }, "geometry": { "type": "Point", "coordinates": [ 139.657145, 35.858565 ] } },
{ "type": "Feature", "properties": { "N05_001": "2", "N05_002": "東北線", "N05_003": "東日本旅客鉄道（旧国鉄）", "N05_004": "1885", "N05_005b": "1950", "N05_005e": "9999", "N05_006": "EB03_12207013", "N05_007": null, "N05_008": null, "N05_009": null, 
"N05_011": "赤羽", "platform": "3", 
"desc":"1981（昭和56）年2月27日（金）<br>926M：前橋→上野<br>3?番線<br>1957　23分遅着<br>赤羽で下車し、赤羽線に乗り換え池袋・渋谷へ", 
"img": [ ],
"hensei": "926M.jpg",
"stopStation": "akabane_station.jpg",
"character": "kuha115shonan_left.png"
 }, "geometry": { "type": "Point", "coordinates": [ 139.721243, 35.777635 ] } }
]
}
