{
"type": "FeatureCollection",
"name": "N05-24_Station2",
"crs": { "type": "name", "properties": { "name": "urn:ogc:def:crs:EPSG::6668" } },
"xy_coordinate_resolution": 1e-09,
"features": [
{ "type": "Feature", "properties": { "N05_001": "2", "N05_002": "東北線", "N05_003": "東日本旅客鉄道（旧国鉄）", "N05_004": "1883", "N05_005b": "1950", "N05_005e": "9999", "N05_006": "EB03_12207005", "N05_007": null, "N05_008": null, "N05_009": null, "N05_011": "上野" }, "geometry": { "type": "Point", "coordinates": [ 139.775855, 35.71322 ] } },
{ "type": "Feature", "properties": { "N05_001": "2", "N05_002": "東北線", "N05_003": "東日本旅客鉄道（旧国鉄）", "N05_004": "1929", "N05_005b": "1950", "N05_005e": "9999", "N05_006": "EB03_12207050", "N05_007": null, "N05_008": null, "N05_009": null, "N05_011": "尾久" }, "geometry": { "type": "Point", "coordinates": [ 139.753882, 35.746822 ] } },
{ "type": "Feature", "properties": { "N05_001": "2", "N05_002": "東北線", "N05_003": "東日本旅客鉄道（旧国鉄）", "N05_004": "1885", "N05_005b": "1950", "N05_005e": "9999", "N05_006": "EB03_12207013", "N05_007": null, "N05_008": null, "N05_009": null, "N05_011": "赤羽" }, "geometry": { "type": "Point", "coordinates": [ 139.721243, 35.777635 ] } },
{ "type": "Feature", "properties": { "N05_001": "2", "N05_002": "東北線", "N05_003": "東日本旅客鉄道（旧国鉄）", "N05_004": "1910", "N05_005b": "1950", "N05_005e": "9999", "N05_006": "EB03_12207014", "N05_007": null, "N05_008": null, "N05_009": null, "N05_011": "川口" }, "geometry": { "type": "Point", "coordinates": [ 139.717499, 35.801824 ] } },
{ "type": "Feature", "properties": { "N05_001": "2", "N05_002": "東北線", "N05_003": "東日本旅客鉄道（旧国鉄）", "N05_004": "1883", "N05_005b": "1950", "N05_005e": "9999", "N05_006": "EB03_12207018", "N05_007": null, "N05_008": null, "N05_009": null, "N05_011": "浦和" }, "geometry": { "type": "Point", "coordinates": [ 139.657145, 35.858565 ] } },
{ "type": "Feature", "properties": { "N05_001": "2", "N05_002": "高崎線", "N05_003": "東日本旅客鉄道（旧国鉄）", "N05_004": "1885", "N05_005b": "1950", "N05_005e": "9999", "N05_006": "EB03_13204001", "N05_007": null, "N05_008": null, "N05_009": null, "N05_011": "大宮" }, "geometry": { "type": "Point", "coordinates": [ 139.624276, 35.906342 ] } },
{ "type": "Feature", "properties": { "N05_001": "2", "N05_002": "高崎線", "N05_003": "東日本旅客鉄道（旧国鉄）", "N05_004": "1948", "N05_005b": "1950", "N05_005e": "9999", "N05_006": "EB03_13204002", "N05_007": null, "N05_008": null, "N05_009": null, "N05_011": "宮原" }, "geometry": { "type": "Point", "coordinates": [ 139.60952, 35.94053 ] } },
{ "type": "Feature", "properties": { "N05_001": "2", "N05_002": "高崎線", "N05_003": "東日本旅客鉄道（旧国鉄）", "N05_004": "1883", "N05_005b": "1950", "N05_005e": "9999", "N05_006": "EB03_13204003", "N05_007": null, "N05_008": null, "N05_009": null, "N05_011": "上尾" }, "geometry": { "type": "Point", "coordinates": [ 139.58881, 35.97302 ] } },
{ "type": "Feature", "properties": { "N05_001": "2", "N05_002": "高崎線", "N05_003": "東日本旅客鉄道（旧国鉄）", "N05_004": "1885", "N05_005b": "1950", "N05_005e": "9999", "N05_006": "EB03_13204005", "N05_007": null, "N05_008": null, "N05_009": null, "N05_011": "桶川" }, "geometry": { "type": "Point", "coordinates": [ 139.564215, 35.998435 ] } },
{ "type": "Feature", "properties": { "N05_001": "2", "N05_002": "高崎線", "N05_003": "東日本旅客鉄道（旧国鉄）", "N05_004": "1928", "N05_005b": "1961", "N05_005e": "9999", "N05_006": "EB03_13204006", "N05_007": null, "N05_008": null, "N05_009": null, "N05_011": "北本" }, "geometry": { "type": "Point", "coordinates": [ 139.533555, 36.032186 ] } },
{ "type": "Feature", "properties": { "N05_001": "2", "N05_002": "高崎線", "N05_003": "東日本旅客鉄道（旧国鉄）", "N05_004": "1883", "N05_005b": "1950", "N05_005e": "9999", "N05_006": "EB03_13204007", "N05_007": null, "N05_008": null, "N05_009": null, "N05_011": "鴻巣" }, "geometry": { "type": "Point", "coordinates": [ 139.509585, 36.05924 ] } },
{ "type": "Feature", "properties": { "N05_001": "2", "N05_002": "高崎線", "N05_003": "東日本旅客鉄道（旧国鉄）", "N05_004": "1885", "N05_005b": "1950", "N05_005e": "9999", "N05_006": "EB03_13204009", "N05_007": null, "N05_008": null, "N05_009": null, "N05_011": "吹上" }, "geometry": { "type": "Point", "coordinates": [ 139.453602, 36.102882 ] } },
{ "type": "Feature", "properties": { "N05_001": "2", "N05_002": "高崎線", "N05_003": "東日本旅客鉄道（旧国鉄）", "N05_004": "1966", "N05_005b": "1966", "N05_005e": "9999", "N05_006": "EB03_13204010", "N05_007": null, "N05_008": null, "N05_009": null, "N05_011": "行田" }, "geometry": { "type": "Point", "coordinates": [ 139.432078, 36.113888 ] } },
{ "type": "Feature", "properties": { "N05_001": "2", "N05_002": "高崎線", "N05_003": "東日本旅客鉄道（旧国鉄）", "N05_004": "1883", "N05_005b": "1950", "N05_005e": "9999", "N05_006": "EB03_13204011", "N05_007": null, "N05_008": null, "N05_009": null, "N05_011": "熊谷" }, "geometry": { "type": "Point", "coordinates": [ 139.389925, 36.13981 ] } },
{ "type": "Feature", "properties": { "N05_001": "2", "N05_002": "高崎線", "N05_003": "東日本旅客鉄道（旧国鉄）", "N05_004": "1909", "N05_005b": "1950", "N05_005e": "9999", "N05_006": "EB03_13204012", "N05_007": null, "N05_008": null, "N05_009": null, "N05_011": "籠原" }, "geometry": { "type": "Point", "coordinates": [ 139.33026, 36.17442 ] } },
{ "type": "Feature", "properties": { "N05_001": "2", "N05_002": "高崎線", "N05_003": "東日本旅客鉄道（旧国鉄）", "N05_004": "1883", "N05_005b": "1950", "N05_005e": "9999", "N05_006": "EB03_13204013", "N05_007": null, "N05_008": null, "N05_009": null, "N05_011": "深谷" }, "geometry": { "type": "Point", "coordinates": [ 139.281345, 36.191345 ] } },
{ "type": "Feature", "properties": { "N05_001": "2", "N05_002": "高崎線", "N05_003": "東日本旅客鉄道（旧国鉄）", "N05_004": "1909", "N05_005b": "1950", "N05_005e": "9999", "N05_006": "EB03_13204014", "N05_007": null, "N05_008": null, "N05_009": null, "N05_011": "岡部" }, "geometry": { "type": "Point", "coordinates": [ 139.237485, 36.205728 ] } },
{ "type": "Feature", "properties": { "N05_001": "2", "N05_002": "高崎線", "N05_003": "東日本旅客鉄道（旧国鉄）", "N05_004": "1883", "N05_005b": "1950", "N05_005e": "9999", "N05_006": "EB03_13204015", "N05_007": null, "N05_008": null, "N05_009": null, "N05_011": "本庄" }, "geometry": { "type": "Point", "coordinates": [ 139.188136, 36.236301 ] } },
{ "type": "Feature", "properties": { "N05_001": "2", "N05_002": "高崎線", "N05_003": "東日本旅客鉄道（旧国鉄）", "N05_004": "1897", "N05_005b": "1950", "N05_005e": "9999", "N05_006": "EB03_13204016", "N05_007": null, "N05_008": null, "N05_009": null, "N05_011": "神保原" }, "geometry": { "type": "Point", "coordinates": [ 139.149014, 36.253623 ] } },
{ "type": "Feature", "properties": { "N05_001": "2", "N05_002": "高崎線", "N05_003": "東日本旅客鉄道（旧国鉄）", "N05_004": "1883", "N05_005b": "1950", "N05_005e": "9999", "N05_006": "EB03_13204017", "N05_007": null, "N05_008": null, "N05_009": null, "N05_011": "新町" }, "geometry": { "type": "Point", "coordinates": [ 139.105312, 36.273098 ] } },
{ "type": "Feature", "properties": { "N05_001": "2", "N05_002": "高崎線", "N05_003": "東日本旅客鉄道（旧国鉄）", "N05_004": "1894", "N05_005b": "1950", "N05_005e": "9999", "N05_006": "EB03_13204018", "N05_007": null, "N05_008": null, "N05_009": null, "N05_011": "倉賀野" }, "geometry": { "type": "Point", "coordinates": [ 139.049435, 36.300292 ] } },
{ "type": "Feature", "properties": { "N05_001": "2", "N05_002": "高崎線", "N05_003": "東日本旅客鉄道（旧国鉄）", "N05_004": "1884", "N05_005b": "1950", "N05_005e": "9999", "N05_006": "EB03_13204019", "N05_007": null, "N05_008": null, "N05_009": null, "N05_011": "高崎" }, "geometry": { "type": "Point", "coordinates": [ 139.012349, 36.322271 ] } },
{ "type": "Feature", "properties": { "N05_001": "2", "N05_002": "信越線", "N05_003": "東日本旅客鉄道（旧国鉄）", "N05_004": "1885", "N05_005b": "1950", "N05_005e": "9999", "N05_006": "EB03_16215066", "N05_007": null, "N05_008": null, "N05_009": null, "N05_011": "北高崎" }, "geometry": { "type": "Point", "coordinates": [ 139.002384, 36.338495 ] } },
{ "type": "Feature", "properties": { "N05_001": "2", "N05_002": "信越線", "N05_003": "東日本旅客鉄道（旧国鉄）", "N05_004": "1924", "N05_005b": "1950", "N05_005e": "9999", "N05_006": "EB03_16215067", "N05_007": null, "N05_008": null, "N05_009": null, "N05_011": "群馬八幡" }, "geometry": { "type": "Point", "coordinates": [ 138.95749, 36.33766 ] } },
{ "type": "Feature", "properties": { "N05_001": "2", "N05_002": "信越線", "N05_003": "東日本旅客鉄道（旧国鉄）", "N05_004": "1885", "N05_005b": "1950", "N05_005e": "9999", "N05_006": "EB03_16215068", "N05_007": null, "N05_008": null, "N05_009": null, "N05_011": "安中" }, "geometry": { "type": "Point", "coordinates": [ 138.914485, 36.331655 ] } },
{ "type": "Feature", "properties": { "N05_001": "2", "N05_002": "信越線", "N05_003": "東日本旅客鉄道（旧国鉄）", "N05_004": "1885", "N05_005b": "1950", "N05_005e": "9999", "N05_006": "EB03_16215069", "N05_007": null, "N05_008": null, "N05_009": null, "N05_011": "磯部" }, "geometry": { "type": "Point", "coordinates": [ 138.849675, 36.29837 ] } },
{ "type": "Feature", "properties": { "N05_001": "2", "N05_002": "信越線", "N05_003": "東日本旅客鉄道（旧国鉄）", "N05_004": "1885", "N05_005b": "1962", "N05_005e": "9999", "N05_006": "EB03_16215070", "N05_007": null, "N05_008": null, "N05_009": null, "N05_011": "松井田" }, "geometry": { "type": "Point", "coordinates": [ 138.797655, 36.309155 ] } },
{ "type": "Feature", "properties": { "N05_001": "2", "N05_002": "信越線", "N05_003": "東日本旅客鉄道（旧国鉄）", "N05_004": "1965", "N05_005b": "1965", "N05_005e": "9999", "N05_006": "EB03_16215071", "N05_007": null, "N05_008": null, "N05_009": null, "N05_011": "西松井田" }, "geometry": { "type": "Point", "coordinates": [ 138.78663, 36.31608 ] } },
{ "type": "Feature", "properties": { "N05_001": "2", "N05_002": "信越線", "N05_003": "東日本旅客鉄道（旧国鉄）", "N05_004": "1885", "N05_005b": "1950", "N05_005e": "9999", "N05_006": "EB03_16215072", "N05_007": null, "N05_008": null, "N05_009": null, "N05_011": "横川" }, "geometry": { "type": "Point", "coordinates": [ 138.7379, 36.33597 ] } },
{ "type": "Feature", "properties": { "N05_001": "2", "N05_002": "信越線", "N05_003": "東日本旅客鉄道（旧国鉄）", "N05_004": "1888", "N05_005b": "1950", "N05_005e": "1996", "N05_006": "EB03_16215073", "N05_007": null, "N05_008": null, "N05_009": null, "N05_011": "軽井沢" }, "geometry": { "type": "Point", "coordinates": [ 138.634985, 36.34287 ] } },
{ "type": "Feature", "properties": { "N05_001": "2", "N05_002": "信越線", "N05_003": "東日本旅客鉄道（旧国鉄）", "N05_004": "1910", "N05_005b": "1956", "N05_005e": "1996", "N05_006": "EB03_16215076", "N05_007": null, "N05_008": null, "N05_009": null, "N05_011": "中軽井沢" }, "geometry": { "type": "Point", "coordinates": [ 138.593134, 36.347636 ] } },
{ "type": "Feature", "properties": { "N05_001": "2", "N05_002": "信越線", "N05_003": "東日本旅客鉄道（旧国鉄）", "N05_004": "1923", "N05_005b": "1950", "N05_005e": "1996", "N05_006": "EB03_16215077", "N05_007": null, "N05_008": null, "N05_009": null, "N05_011": "信濃追分" }, "geometry": { "type": "Point", "coordinates": [ 138.558495, 36.33545 ] } },
{ "type": "Feature", "properties": { "N05_001": "2", "N05_002": "信越線", "N05_003": "東日本旅客鉄道（旧国鉄）", "N05_004": "1888", "N05_005b": "1950", "N05_005e": "1996", "N05_006": "EB03_16215078", "N05_007": null, "N05_008": null, "N05_009": null, "N05_011": "御代田" }, "geometry": { "type": "Point", "coordinates": [ 138.50632, 36.31899 ] } },
{ "type": "Feature", "properties": { "N05_001": "2", "N05_002": "信越線", "N05_003": "東日本旅客鉄道（旧国鉄）", "N05_004": "1952", "N05_005b": "1952", "N05_005e": "1996", "N05_006": "EB03_16215079", "N05_007": null, "N05_008": null, "N05_009": null, "N05_011": "平原" }, "geometry": { "type": "Point", "coordinates": [ 138.45391, 36.308635 ] } },
{ "type": "Feature", "properties": { "N05_001": "2", "N05_002": "信越線", "N05_003": "東日本旅客鉄道（旧国鉄）", "N05_004": "1888", "N05_005b": "1950", "N05_005e": "1996", "N05_006": "EB03_16215080", "N05_007": null, "N05_008": null, "N05_009": null, "N05_011": "小諸" }, "geometry": { "type": "Point", "coordinates": [ 138.422631, 36.325869 ] } },
{ "type": "Feature", "properties": { "N05_001": "2", "N05_002": "信越線", "N05_003": "東日本旅客鉄道（旧国鉄）", "N05_004": "1923", "N05_005b": "1950", "N05_005e": "1996", "N05_006": "EB03_16215081", "N05_007": null, "N05_008": null, "N05_009": null, "N05_011": "滋野" }, "geometry": { "type": "Point", "coordinates": [ 138.363941, 36.342325 ] } },
{ "type": "Feature", "properties": { "N05_001": "2", "N05_002": "信越線", "N05_003": "東日本旅客鉄道（旧国鉄）", "N05_004": "1888", "N05_005b": "1950", "N05_005e": "1996", "N05_006": "EB03_16215082", "N05_007": null, "N05_008": null, "N05_009": null, "N05_011": "田中" }, "geometry": { "type": "Point", "coordinates": [ 138.32921, 36.354415 ] } },
{ "type": "Feature", "properties": { "N05_001": "2", "N05_002": "信越線", "N05_003": "東日本旅客鉄道（旧国鉄）", "N05_004": "1896", "N05_005b": "1950", "N05_005e": "1996", "N05_006": "EB03_16215083", "N05_007": null, "N05_008": null, "N05_009": null, "N05_011": "大屋" }, "geometry": { "type": "Point", "coordinates": [ 138.29713, 36.36959 ] } },
{ "type": "Feature", "properties": { "N05_001": "2", "N05_002": "信越線", "N05_003": "東日本旅客鉄道（旧国鉄）", "N05_004": "1888", "N05_005b": "1950", "N05_005e": "1996", "N05_006": "EB03_16215085", "N05_007": null, "N05_008": null, "N05_009": null, "N05_011": "上田" }, "geometry": { "type": "Point", "coordinates": [ 138.250258, 36.395752 ] } },
{ "type": "Feature", "properties": { "N05_001": "2", "N05_002": "信越線", "N05_003": "東日本旅客鉄道（旧国鉄）", "N05_004": "1920", "N05_005b": "1956", "N05_005e": "1996", "N05_006": "EB03_16215086", "N05_007": null, "N05_008": null, "N05_009": null, "N05_011": "西上田" }, "geometry": { "type": "Point", "coordinates": [ 138.209055, 36.416875 ] } },
{ "type": "Feature", "properties": { "N05_001": "2", "N05_002": "信越線", "N05_003": "東日本旅客鉄道（旧国鉄）", "N05_004": "1888", "N05_005b": "1950", "N05_005e": "1996", "N05_006": "EB03_16215088", "N05_007": null, "N05_008": null, "N05_009": null, "N05_011": "坂城" }, "geometry": { "type": "Point", "coordinates": [ 138.18145, 36.46198 ] } },
{ "type": "Feature", "properties": { "N05_001": "2", "N05_002": "信越線", "N05_003": "東日本旅客鉄道（旧国鉄）", "N05_004": "1912", "N05_005b": "1950", "N05_005e": "1996", "N05_006": "EB03_16215089", "N05_007": null, "N05_008": null, "N05_009": null, "N05_011": "戸倉" }, "geometry": { "type": "Point", "coordinates": [ 138.153054, 36.492968 ] } },
{ "type": "Feature", "properties": { "N05_001": "2", "N05_002": "信越線", "N05_003": "東日本旅客鉄道（旧国鉄）", "N05_004": "1888", "N05_005b": "1950", "N05_005e": "1996", "N05_006": "EB03_16215091", "N05_007": null, "N05_008": null, "N05_009": null, "N05_011": "屋代" }, "geometry": { "type": "Point", "coordinates": [ 138.128162, 36.532556 ] } },
{ "type": "Feature", "properties": { "N05_001": "2", "N05_002": "信越線", "N05_003": "東日本旅客鉄道（旧国鉄）", "N05_004": "1888", "N05_005b": "1950", "N05_005e": "9999", "N05_006": "EB03_16215001", "N05_007": null, "N05_008": null, "N05_009": null, "N05_011": "篠ノ井" }, "geometry": { "type": "Point", "coordinates": [ 138.138127, 36.577106 ] } },
{ "type": "Feature", "properties": { "N05_001": "2", "N05_002": "信越線", "N05_003": "東日本旅客鉄道（旧国鉄）", "N05_004": "1917", "N05_005b": "1950", "N05_005e": "9999", "N05_006": "EB03_16215003", "N05_007": null, "N05_008": null, "N05_009": null, "N05_011": "川中島" }, "geometry": { "type": "Point", "coordinates": [ 138.1507, 36.61409 ] } },
{ "type": "Feature", "properties": { "N05_001": "2", "N05_002": "信越線", "N05_003": "東日本旅客鉄道（旧国鉄）", "N05_004": "1888", "N05_005b": "1950", "N05_005e": "9999", "N05_006": "EB03_16215005", "N05_007": null, "N05_008": null, "N05_009": null, "N05_011": "長野" }, "geometry": { "type": "Point", "coordinates": [ 138.18885, 36.64346 ] } },
{ "type": "Feature", "properties": { "N05_001": "2", "N05_002": "信越線", "N05_003": "東日本旅客鉄道（旧国鉄）", "N05_004": "1898", "N05_005b": "1957", "N05_005e": "2014", "N05_006": "EB03_16215006", "N05_007": null, "N05_008": null, "N05_009": null, "N05_011": "北長野" }, "geometry": { "type": "Point", "coordinates": [ 138.22265, 36.66507 ] } },
{ "type": "Feature", "properties": { "N05_001": "2", "N05_002": "信越線", "N05_003": "東日本旅客鉄道（旧国鉄）", "N05_004": "1958", "N05_005b": "1958", "N05_005e": "2014", "N05_006": "EB03_16215007", "N05_007": null, "N05_008": null, "N05_009": null, "N05_011": "三才" }, "geometry": { "type": "Point", "coordinates": [ 138.243981, 36.686641 ] } },
{ "type": "Feature", "properties": { "N05_001": "2", "N05_002": "信越線", "N05_003": "東日本旅客鉄道（旧国鉄）", "N05_004": "1888", "N05_005b": "1950", "N05_005e": "2014", "N05_006": "EB03_16215008", "N05_007": null, "N05_008": null, "N05_009": null, "N05_011": "豊野" }, "geometry": { "type": "Point", "coordinates": [ 138.27556, 36.711095 ] } },
{ "type": "Feature", "properties": { "N05_001": "2", "N05_002": "信越線", "N05_003": "東日本旅客鉄道（旧国鉄）", "N05_004": "1888", "N05_005b": "1950", "N05_005e": "2014", "N05_006": "EB03_16215009", "N05_007": null, "N05_008": null, "N05_009": null, "N05_011": "牟礼" }, "geometry": { "type": "Point", "coordinates": [ 138.24678, 36.753227 ] } },
{ "type": "Feature", "properties": { "N05_001": "2", "N05_002": "信越線", "N05_003": "東日本旅客鉄道（旧国鉄）", "N05_004": "1928", "N05_005b": "1950", "N05_005e": "2014", "N05_006": "EB03_16215010", "N05_007": null, "N05_008": null, "N05_009": null, "N05_011": "古間" }, "geometry": { "type": "Point", "coordinates": [ 138.230516, 36.792435 ] } },
{ "type": "Feature", "properties": { "N05_001": "2", "N05_002": "信越線", "N05_003": "東日本旅客鉄道（旧国鉄）", "N05_004": "1888", "N05_005b": "1968", "N05_005e": "2014", "N05_006": "EB03_16215011", "N05_007": null, "N05_008": null, "N05_009": null, "N05_011": "黒姫" }, "geometry": { "type": "Point", "coordinates": [ 138.19711, 36.80732 ] } },
{ "type": "Feature", "properties": { "N05_001": "2", "N05_002": "信越線", "N05_003": "東日本旅客鉄道（旧国鉄）", "N05_004": "1888", "N05_005b": "1969", "N05_005e": "2014", "N05_006": "EB03_16215012", "N05_007": null, "N05_008": null, "N05_009": null, "N05_011": "妙高高原" }, "geometry": { "type": "Point", "coordinates": [ 138.212185, 36.872305 ] } },
{ "type": "Feature", "properties": { "N05_001": "2", "N05_002": "信越線", "N05_003": "東日本旅客鉄道（旧国鉄）", "N05_004": "1886", "N05_005b": "1950", "N05_005e": "1984", "N05_006": "EB03_16215013", "N05_007": null, "N05_008": null, "N05_009": null, "N05_011": "関山" }, "geometry": { "type": "Point", "coordinates": [ 138.224474, 36.936853 ] } },
{ "type": "Feature", "properties": { "N05_001": "2", "N05_002": "信越線", "N05_003": "東日本旅客鉄道（旧国鉄）", "N05_004": "1911", "N05_005b": "1950", "N05_005e": "2014", "N05_006": "EB03_16215014", "N05_007": null, "N05_008": null, "N05_009": null, "N05_011": "二本木" }, "geometry": { "type": "Point", "coordinates": [ 138.232615, 36.989579 ] } },
{ "type": "Feature", "properties": { "N05_001": "2", "N05_002": "信越線", "N05_003": "東日本旅客鉄道（旧国鉄）", "N05_004": "1886", "N05_005b": "1950", "N05_005e": "2014", "N05_006": "EB03_16215015", "N05_007": null, "N05_008": null, "N05_009": null, "N05_011": "新井" }, "geometry": { "type": "Point", "coordinates": [ 138.25563, 37.026735 ] } },
{ "type": "Feature", "properties": { "N05_001": "2", "N05_002": "信越線", "N05_003": "東日本旅客鉄道（旧国鉄）", "N05_004": "1955", "N05_005b": "1955", "N05_005e": "2014", "N05_006": "EB03_16215016", "N05_007": null, "N05_008": null, "N05_009": null, "N05_011": "北新井" }, "geometry": { "type": "Point", "coordinates": [ 138.25771, 37.0529 ] } },
{ "type": "Feature", "properties": { "N05_001": "2", "N05_002": "信越線", "N05_003": "東日本旅客鉄道（旧国鉄）", "N05_004": "1921", "N05_005b": "1950", "N05_005e": "2013", "N05_006": "EB03_16215017", "N05_007": null, "N05_008": null, "N05_009": null, "N05_011": "脇野田" }, "geometry": { "type": "Point", "coordinates": [ 138.249545, 37.08174 ] } },
{ "type": "Feature", "properties": { "N05_001": "2", "N05_002": "信越線", "N05_003": "東日本旅客鉄道（旧国鉄）", "N05_004": "1961", "N05_005b": "1961", "N05_005e": "2014", "N05_006": "EB03_16215018", "N05_007": null, "N05_008": null, "N05_009": null, "N05_011": "南高田" }, "geometry": { "type": "Point", "coordinates": [ 138.243035, 37.096795 ] } },
{ "type": "Feature", "properties": { "N05_001": "2", "N05_002": "信越線", "N05_003": "東日本旅客鉄道（旧国鉄）", "N05_004": "1886", "N05_005b": "1950", "N05_005e": "2014", "N05_006": "EB03_16215019", "N05_007": null, "N05_008": null, "N05_009": null, "N05_011": "高田" }, "geometry": { "type": "Point", "coordinates": [ 138.241965, 37.11462 ] } },
{ "type": "Feature", "properties": { "N05_001": "2", "N05_002": "信越線", "N05_003": "東日本旅客鉄道（旧国鉄）", "N05_004": "1928", "N05_005b": "1950", "N05_005e": "2001", "N05_006": "EB03_16215020", "N05_007": null, "N05_008": null, "N05_009": null, "N05_011": "春日山" }, "geometry": { "type": "Point", "coordinates": [ 138.235186, 37.144431 ] } },
{ "type": "Feature", "properties": { "N05_001": "2", "N05_002": "北陸線", "N05_003": "西日本旅客鉄道（旧国鉄）", "N05_004": "1911", "N05_005b": "1950", "N05_005e": "2014", "N05_006": "EB03_16203080", "N05_007": null, "N05_008": null, "N05_009": null, "N05_011": "直江津" }, "geometry": { "type": "Point", "coordinates": [ 138.242233, 37.170258 ] } },
{ "type": "Feature", "properties": { "N05_001": "2", "N05_002": "北陸線", "N05_003": "西日本旅客鉄道（旧国鉄）", "N05_004": "1911", "N05_005b": "1950", "N05_005e": "2014", "N05_006": "EB03_16203078", "N05_007": null, "N05_008": null, "N05_009": null, "N05_011": "谷浜" }, "geometry": { "type": "Point", "coordinates": [ 138.173915, 37.16239 ] } },
{ "type": "Feature", "properties": { "N05_001": "2", "N05_002": "北陸線", "N05_003": "西日本旅客鉄道（旧国鉄）", "N05_004": "1946", "N05_005b": "1950", "N05_005e": "2014", "N05_006": "EB03_16203077", "N05_007": null, "N05_008": null, "N05_009": null, "N05_011": "有間川" }, "geometry": { "type": "Point", "coordinates": [ 138.136665, 37.16332 ] } },
{ "type": "Feature", "properties": { "N05_001": "2", "N05_002": "北陸線", "N05_003": "西日本旅客鉄道（旧国鉄）", "N05_004": "1912", "N05_005b": "1969", "N05_005e": "2014", "N05_006": "EB03_16203076", "N05_007": null, "N05_008": null, "N05_009": null, "N05_011": "名立" }, "geometry": { "type": "Point", "coordinates": [ 138.092668, 37.155816 ] } },
{ "type": "Feature", "properties": { "N05_001": "2", "N05_002": "北陸線", "N05_003": "西日本旅客鉄道（旧国鉄）", "N05_004": "1912", "N05_005b": "1969", "N05_005e": "2014", "N05_006": "EB03_16203075", "N05_007": null, "N05_008": null, "N05_009": null, "N05_011": "筒石" }, "geometry": { "type": "Point", "coordinates": [ 138.060575, 37.127325 ] } },
{ "type": "Feature", "properties": { "N05_001": "2", "N05_002": "北陸線", "N05_003": "西日本旅客鉄道（旧国鉄）", "N05_004": "1912", "N05_005b": "1969", "N05_005e": "2014", "N05_006": "EB03_16203074", "N05_007": null, "N05_008": null, "N05_009": null, "N05_011": "能生" }, "geometry": { "type": "Point", "coordinates": [ 137.988402, 37.096008 ] } },
{ "type": "Feature", "properties": { "N05_001": "2", "N05_002": "北陸線", "N05_003": "西日本旅客鉄道（旧国鉄）", "N05_004": "1950", "N05_005b": "1950", "N05_005e": "2014", "N05_006": "EB03_16203073", "N05_007": null, "N05_008": null, "N05_009": null, "N05_011": "浦本" }, "geometry": { "type": "Point", "coordinates": [ 137.939804, 37.074156 ] } },
{ "type": "Feature", "properties": { "N05_001": "2", "N05_002": "北陸線", "N05_003": "西日本旅客鉄道（旧国鉄）", "N05_004": "1912", "N05_005b": "1950", "N05_005e": "2014", "N05_006": "EB03_16203072", "N05_007": null, "N05_008": null, "N05_009": null, "N05_011": "梶屋敷" }, "geometry": { "type": "Point", "coordinates": [ 137.905775, 37.056617 ] } },
{ "type": "Feature", "properties": { "N05_001": "2", "N05_002": "北陸線", "N05_003": "西日本旅客鉄道（旧国鉄）", "N05_004": "1912", "N05_005b": "1950", "N05_005e": "2014", "N05_006": "EB03_16203071", "N05_007": null, "N05_008": null, "N05_009": null, "N05_011": "糸魚川" }, "geometry": { "type": "Point", "coordinates": [ 137.86258, 37.043805 ] } }
]
}
