{
"type": "FeatureCollection",
"name": "N05-24_Station2",
"crs": { "type": "name", "properties": { "name": "urn:ogc:def:crs:EPSG::6668" } },
"xy_coordinate_resolution": 1e-09,
"features": [
{ "type": "Feature", "properties": { "N05_001": "2", "N05_002": "東北線", "N05_003": "東日本旅客鉄道（旧国鉄）", "N05_004": "1883", "N05_005b": "1950", "N05_005e": "9999", "N05_006": "EB03_12207005", "N05_007": null, "N05_008": null, "N05_009": null, 
"N05_011": "上野", "platform": "14", 
"desc":"1981（昭和56）年2月26日（木）<br>603ㇾ 急行越前（信越本線経由）：上野→福井<br>14番線<br>2030　既に入線（2019）済<br>2053　定刻発<br>9号車20番ボックス占有（オハフ45 2016）", 
"img": [ "hokuriku_ticket.jpg", "ueno_12.jpg"],
"hensei": "EF60_echizen_L.png",
"stopStation": "ueno_station.jpg",
"character": "EF62_left.png"
}, "geometry": { "type": "Point", "coordinates": [ 139.775855, 35.71322 ] } },
{ "type": "Feature", "properties": { "N05_001": "2", "N05_002": "高崎線", "N05_003": "東日本旅客鉄道（旧国鉄）", "N05_004": "1885", "N05_005b": "1950", "N05_005e": "9999", "N05_006": "EB03_13204001", "N05_007": null, "N05_008": null, "N05_009": null, 
"N05_011": "大宮", "platform": "8", 
"desc":"1981（昭和56）年2月26日（木）<br>603ㇾ 急行越前：上野→福井<br>8番線？<br>2119 定刻発<br>4～5人が下車し、10数人が乗車。ボックスに会社員2名が同席し大宮―高崎間は通勤電車の様相。",
"img": [ ],
"hensei": "EF60_echizen_L.png",
"stopStation": "omiya_station.jpg",
"character": "EF62_left.png"
}, "geometry": { "type": "Point", "coordinates": [ 139.624276, 35.906342 ] } },
{ "type": "Feature", "properties": { "N05_001": "2", "N05_002": "高崎線", "N05_003": "東日本旅客鉄道（旧国鉄）", "N05_004": "1883", "N05_005b": "1950", "N05_005e": "9999", "N05_006": "EB03_13204011", "N05_007": null, "N05_008": null, "N05_009": null, 
"N05_011": "熊谷", "platform": "4", 
"desc":"1981（昭和56）年2月26日（木）<br>603ㇾ 急行越前：上野→福井<br>4番線？<br>2147 定刻発",
"img": [ ],
"hensei": "EF60_echizen_L.png",
"stopStation": "kumagaya_station.jpg",
"character": "EF62_left.png"
}, "geometry": { "type": "Point", "coordinates": [ 139.389925, 36.13981 ] } },
{ "type": "Feature", "properties": { "N05_001": "2", "N05_002": "高崎線", "N05_003": "東日本旅客鉄道（旧国鉄）", "N05_004": "1884", "N05_005b": "1950", "N05_005e": "9999", "N05_006": "EB03_13204019", "N05_007": null, "N05_008": null, "N05_009": null, 
"N05_011": "高崎", "platform": "1", 
"desc":"1981（昭和56）年2月26日（木）<br>603ㇾ 急行越前：上野→福井<br>1番線？<br>2219　定刻着<br>2216発139M横川行き運転取りやめの車内放送。急行越前は急遽高崎ー横川間を普通列車として運行決定（西松井田は通過予定）。そのため両毛線486M接続待ちで出発遅延。<br>2232　5分遅発",
"img": [ ],
"hensei": "EF60_echizen_L.png",
"stopStation": "takasaki_station.jpg",
"character": "EF62_left.png"
}, "geometry": { "type": "Point", "coordinates": [ 139.012349, 36.322271 ] } },
{ "type": "Feature", "properties": { "N05_001": "2", "N05_002": "信越線", "N05_003": "東日本旅客鉄道（旧国鉄）", "N05_004": "1885", "N05_005b": "1950", "N05_005e": "9999", "N05_006": "EB03_16215072", "N05_007": null, "N05_008": null, "N05_009": null, 
"N05_011": "横川", "platform": "3", 
"desc":"1981（昭和56）年2月26日（木）<br>603ㇾ 急行越前：上野→福井<br>3番線？<br>2310　定刻着<br>元祖釜めし600円で販売。ここからうっすらと雪積。<br>2315　13分遅発<br>これから碓氷峠越え。雪が間断なく降っている。車内放送は明朝4時までなしとの放送。",
"img": [ ],
"hensei": "EF60_echizen_L.png",
"stopStation": "yokokawa_station.jpg",
"character": "EF62_left.png"
}, "geometry": { "type": "Point", "coordinates": [ 138.7379, 36.33597 ] } },
{ "type": "Feature", "properties": { "N05_001": "2", "N05_002": "信越線", "N05_003": "東日本旅客鉄道（旧国鉄）", "N05_004": "1888", "N05_005b": "1950", "N05_005e": "1996", "N05_006": "EB03_16215073", "N05_007": null, "N05_008": null, "N05_009": null, 
"N05_011": "軽井沢", "platform": "3", 
"desc":"1981（昭和56）年2月26日（木）<br>603ㇾ 急行越前：上野→福井<br>3番線？<br>2335　16分遅着<br>上りあさま20号（5040M）、信州10号（6302M）と交換。2時間45分遅れでの運転となっている。<br>「高山線雪崩で不通、北陸線雷鳥・加越の運転取りやめ」と車内放送。<br>2338　14分遅発<br>カレチ情報では『越前はスキー列車としては利用されないらしい。高山線が雪崩で不通。北陸線は、雷鳥・加越が運転取りやめ。』とのこと",
"img": [ ],
"hensei": "EF60_echizen_L.png",
"stopStation": "karuizawa_station.jpg",
"character": "EF62_left.png"
}, "geometry": { "type": "Point", "coordinates": [ 138.634985, 36.34287 ] } },
{ "type": "Feature", "properties": { "N05_001": "2", "N05_002": "信越線", "N05_003": "東日本旅客鉄道（旧国鉄）", "N05_004": "1888", "N05_005b": "1950", "N05_005e": "1996", "N05_006": "EB03_16215080", "N05_007": null, "N05_008": null, "N05_009": null, 
"N05_011": "小諸", "platform": "3", 
"desc":"1981（昭和56）年2月26日（木）<br>603ㇾ 急行越前：上野→福井<br>3番線？<br>2353　7分遅着<br>車内照明は明るいが、ひそひそ声のみ聞こえる程度にかなり静か。乗車率50%くらい。<br>2359　7分遅発",
"img": [ ],
"hensei": "EF60_echizen_L.png",
"stopStation": "komoro_station.jpg",
"character": "EF62_left.png"
}, "geometry": { "type": "Point", "coordinates": [ 138.422631, 36.325869 ] } },
{ "type": "Feature", "properties": { "N05_001": "2", "N05_002": "信越線", "N05_003": "東日本旅客鉄道（旧国鉄）", "N05_004": "1888", "N05_005b": "1950", "N05_005e": "1996", "N05_006": "EB03_16215085", "N05_007": null, "N05_008": null, "N05_009": null, 
"N05_011": "上田", "platform": "3", 
"desc": "1981（昭和56）年2月26日（木）<br>603ㇾ 急行越前：上野→福井<br>3番線？<br>0018　4分遅発", 
"img": [ ],
"hensei": "EF60_echizen_L.png",
"stopStation": "ueda_station.jpg",
"character": "EF62_left.png"
}, "geometry": { "type": "Point", "coordinates": [ 138.250258, 36.395752 ] } },
{ "type": "Feature", "properties": { "N05_001": "2", "N05_002": "信越線", "N05_003": "東日本旅客鉄道（旧国鉄）", "N05_004": "1888", "N05_005b": "1950", "N05_005e": "9999", "N05_006": "EB03_16215001", "N05_007": null, "N05_008": null, "N05_009": null, 
"N05_011": "篠ノ井", "platform": "2", 
"desc": "1981（昭和56）年2月27日（金）<br>603ㇾ 急行越前：上野→福井<br>2番線？<br>運転停車で運転手交代。妙高10号と交換。", 
"img": [ ],
"hensei": "EF60_echizen_L.png",
"stopStation": "shinonoi_station.jpg",
"character": "EF62_left.png"
}, "geometry": { "type": "Point", "coordinates": [ 138.138127, 36.577106 ] } },
{ "type": "Feature", "properties": { "N05_001": "2", "N05_002": "信越線", "N05_003": "東日本旅客鉄道（旧国鉄）", "N05_004": "1888", "N05_005b": "1950", "N05_005e": "9999", "N05_006": "EB03_16215005", "N05_007": null, "N05_008": null, "N05_009": null, 
"N05_011": "長野", "platform": "1", 
"desc":"1981（昭和56）年2月27日（金）<br>603ㇾ 急行越前：上野→福井<br>1番線？<br>0100　5分遅着<br>9号車の乗降無し。遅着のため停車時間を短縮か。<br>0101　1分遅発",
"img": [ ],
"hensei": "EF60_echizen_L.png",
"stopStation": "nagano_station.jpg",
"character": "EF62_left.png"
}, "geometry": { "type": "Point", "coordinates": [ 138.18885, 36.64346 ] } },
{ "type": "Feature", "properties": { "N05_001": "2", "N05_002": "信越線", "N05_003": "東日本旅客鉄道（旧国鉄）", "N05_004": "1888", "N05_005b": "1969", "N05_005e": "2014", "N05_006": "EB03_16215012", "N05_007": null, "N05_008": null, "N05_009": null, 
"N05_011": "妙高高原", "platform": "1", 
"desc":"1981（昭和56）年2月27日（金）<br>603ㇾ 急行越前：上野→福井<br>？番線<br>0154　定刻着<br>ホームは綿のような雪が15cmほど積雪<br>0158　定刻発",
"img": [ ],
"hensei": "EF60_echizen_L.png",
"stopStation": "myokokogen_station.jpg",
"character": "EF62_left.png"
}, "geometry": { "type": "Point", "coordinates": [ 138.212185, 36.872305 ] } },
{ "type": "Feature", "properties": { "N05_001": "2", "N05_002": "信越線", "N05_003": "東日本旅客鉄道（旧国鉄）", "N05_004": "1886", "N05_005b": "1950", "N05_005e": "2014", "N05_006": "EB03_16215015", "N05_007": null, "N05_008": null, "N05_009": null, 
"N05_011": "新井", "platform": "1", 
"desc":"1981（昭和56）年2月27日（金）<br>603ㇾ 急行越前：上野→福井<br>1番線？<br>0223　定刻着<br>ここは単線区間らしく、1時間25分遅れの上り急行越前交換待ち。北陸線も遅延か<br>0237　14分遅発",
"img": [ ],
"hensei": "EF60_echizen_L.png",
"stopStation": "arai_station.jpg",
"character": "EF62_left.png"
}, "geometry": { "type": "Point", "coordinates": [ 138.25563, 37.026735 ] } },
{ "type": "Feature", "properties": { "N05_001": "2", "N05_002": "信越線", "N05_003": "東日本旅客鉄道（旧国鉄）", "N05_004": "1886", "N05_005b": "1950", "N05_005e": "2014", "N05_006": "EB03_16215019", "N05_007": null, "N05_008": null, "N05_009": null, 
"N05_011": "高田", "platform": "2", 
"desc":"1981（昭和56）年2月27日（金）<br>603ㇾ 急行越前：上野→福井<br>2番線？<br>0247　7分遅着<br>何の放送もなく1時間近く停車。駅員がしきりに行き来している。<br>0330　50分遅発",
"img": [ ],
"hensei": "EF60_echizen_L.png",
"stopStation": "takata_station.jpg",
"character": "EF62_left.png"
}, "geometry": { "type": "Point", "coordinates": [ 138.241965, 37.11462 ] } },
{ "type": "Feature", "properties": { "N05_001": "2", "N05_002": "北陸線", "N05_003": "西日本旅客鉄道（旧国鉄）", "N05_004": "1911", "N05_005b": "1950", "N05_005e": "2014", "N05_006": "EB03_16203080", "N05_007": null, "N05_008": null, "N05_009": null, 
"N05_011": "直江津", "platform": "3", 
"desc":"1981（昭和56）年2月27日（金）<br>603ㇾ 急行越前：上野→福井<br>3番線<br>0338　49分遅着<br>4番線にブルートㇾイン停車中、大阪行きから日本海2号（4002ㇾ）と判明。日本海は1:23直江津着なので2時間15分も停車。何の放送・連絡もなし。機関車が（恐らく2番線を）機回しされ、越前の1号車の方へ移動。<br>0405　『北陸トンネル内で貨物車が脱線し、相当運転遅延。日本海の乗客のために席を譲り合うよう』との車内放送。603ㇾは打ち切らず運転か。<br>0542　日本海2号直江津で正式に打切り放送。乗客が越前に移動。<br>新津から大阪帰りの人が着席。新津ではきたぐに（502ㇾ）が運休。つるぎ（4006ㇾ）は満席のため日本海に乗車したとのこと。隣のボックスの乗客は、払い戻しと高山線の話をしていた。5番線にはいつの間にか、金沢行き北陸（3001ㇾ）が停車。<br>0548　166分遅発",
"img": [ "naoetsu_11.jpg", "naoetsu_12.jpg", "naoetsu_13.jpg" ],
"hensei": "EF60_echizen_R.png",
"stopStation": "naoetsu_station.jpg",
"character": "EF70_left.png"
}, "geometry": { "type": "Point", "coordinates": [ 138.242233, 37.170258 ] } },
{ "type": "Feature", "properties": { "N05_001": "2", "N05_002": "北陸線", "N05_003": "西日本旅客鉄道（旧国鉄）", "N05_004": "1912", "N05_005b": "1950", "N05_005e": "2014", "N05_006": "EB03_16203071", "N05_007": null, "N05_008": null, "N05_009": null, 
"N05_011": "糸魚川", "platform": "3", 
"desc": "1981（昭和56）年2月27日（金）<br>603ㇾ　急行越前：上野→福井<br>3番線<br>0616　163分遅着<br>目の前に1226ㇾ富山行きが停車中。越前を見送り、1226ㇾに乗り換え。", 
"img": [ "itoigawa_11.jpg", "itoigawa_12.png", "itoigawa_13.jpg", "itoigawa_14.jpg", "itoigawa_15.png", "itoigawa_16.jpg", "itoigawa_17.jpg", "itoigawa_18.jpg" ],
"hensei": "EF70_echizen_R.png",
"stopStation": "itoigawa_station.jpg",
"character": "EF70_left.png"
}, "geometry": { "type": "Point", "coordinates": [ 137.86258, 37.043805 ] } }
]}
