{
"type": "FeatureCollection",
"name": "N05-24_Station2",
"crs": { "type": "name", "properties": { "name": "urn:ogc:def:crs:EPSG::6668" } },
"xy_coordinate_resolution": 1e-09,
"features": [
{ "type": "Feature", "properties": { "N05_001": "2", "N05_002": "信越線", "N05_003": "東日本旅客鉄道（旧国鉄）", "N05_004": "1888", "N05_005b": "1950", "N05_005e": "9999", "N05_006": "EB03_16215001", "N05_007": null, "N05_008": null, "N05_009": null, 
"N05_011": "篠ノ井", "platform": "1", 
"desc":"1981（昭和56）年2月27日（金）<br>1308M 急行妙高4号：妙高高原→上野<br>1番線<br>1524　54分遅発", 
"img": [ "shinonoi_12.jpg"],
"hensei": "myoko4_R.png",
"stopStation": "shinonoi_station.jpg",
"character": "kuha169_left.png"
 }, "geometry": { "type": "Point", "coordinates": [ 138.138127, 36.577106 ] } },
{ "type": "Feature", "properties": { "N05_001": "2", "N05_002": "信越線", "N05_003": "東日本旅客鉄道（旧国鉄）", "N05_004": "1888", "N05_005b": "1950", "N05_005e": "1996", "N05_006": "EB03_16215091", "N05_007": null, "N05_008": null, "N05_009": null, 
"N05_011": "屋代", "platform": "2", 
"desc":"1981（昭和56）年2月27日（金）<br>1308M 急行妙高4号：妙高高原→上野<br>？番線<br>1534　約60分遅着<br>先着の長野電鉄湯田中発4308M志賀2号が妙高4号の後部に併合<br>列車編成では上野方向先頭は妙高4号<br>1308M：妙高4号・志賀2号：妙高高原→上野<br>1538　57分遅発", 
"img": [ ],
"hensei": "myoko4_shiga2_R.png",
"stopStation": "yashiro_station.jpg",
"character": "kuha169_right.png"
 }, "geometry": { "type": "Point", "coordinates": [ 138.128162, 36.532556 ] } },
{ "type": "Feature", "properties": { "N05_001": "2", "N05_002": "信越線", "N05_003": "東日本旅客鉄道（旧国鉄）", "N05_004": "1912", "N05_005b": "1950", "N05_005e": "1996", "N05_006": "EB03_16215089", "N05_007": null, "N05_008": null, "N05_009": null, 
"N05_011": "戸倉", "platform": "3", 
"desc":"1981（昭和56）年2月27日（金）<br>1308M 急行妙高4号：妙高高原→上野<br>？番線<br>1544　約60分遅着<br>車内は空いていて睡魔のためか上田、大屋停車には気づかず<br>1545　64分遅発", 
"img": [ ],
"hensei": "myoko4_shiga2_R.png",
"stopStation": "tokura_station.jpg",
"character": "kuha169_right.png"
 }, "geometry": { "type": "Point", "coordinates": [ 138.153054, 36.492968 ] } },
{ "type": "Feature", "properties": { "N05_001": "2", "N05_002": "信越線", "N05_003": "東日本旅客鉄道（旧国鉄）", "N05_004": "1888", "N05_005b": "1950", "N05_005e": "1996", "N05_006": "EB03_16215080", "N05_007": null, "N05_008": null, "N05_009": null, 
"N05_011": "小諸", "platform": "1", 
"desc":"1981（昭和56）年2月27日（金）<br>1308M 急行妙高4号：妙高高原→上野<br>？番線<br>1614　58分遅着<br>1626　61分遅発", 
"img": [ ],
"hensei": "myoko4_shiga2_R.png",
"stopStation": "komoro_station.jpg",
"character": "kuha169_right.png"
 }, "geometry": { "type": "Point", "coordinates": [ 138.422631, 36.325869 ] } },
{ "type": "Feature", "properties": { "N05_001": "2", "N05_002": "信越線", "N05_003": "東日本旅客鉄道（旧国鉄）", "N05_004": "1888", "N05_005b": "1950", "N05_005e": "1996", "N05_006": "EB03_16215078", "N05_007": null, "N05_008": null, "N05_009": null, 
"N05_011": "御代田", "platform": "2", 
"desc":"1981（昭和56）年2月27日（金）<br>1308M 急行妙高4号：妙高高原→上野<br>？番線<br>車内がやや混みだす<br>1639　65分遅発", 
"img": [ ],
"hensei": "myoko4_shiga2_R.png",
"stopStation": "miyota_station.jpg",
"character": "kuha169_right.png"
 }, "geometry": { "type": "Point", "coordinates": [ 138.50632, 36.31899 ] } },
{ "type": "Feature", "properties": { "N05_001": "2", "N05_002": "信越線", "N05_003": "東日本旅客鉄道（旧国鉄）", "N05_004": "1923", "N05_005b": "1950", "N05_005e": "1996", "N05_006": "EB03_16215077", "N05_007": null, "N05_008": null, "N05_009": null, 
"N05_011": "信濃追分", "platform": "1", 
"desc":"1981（昭和56）年2月27日（金）<br>1308M 急行妙高4号：妙高高原→上野<br>？番線<br>1642　約60分遅着<br>1644　62分遅発", 
"img": [ ],
"hensei": "myoko4_shiga2_R.png",
"stopStation": "shinano-oiwake_station.jpg",
"character": "kuha169_right.png"
 }, "geometry": { "type": "Point", "coordinates": [ 138.558495, 36.33545 ] } },
{ "type": "Feature", "properties": { "N05_001": "2", "N05_002": "信越線", "N05_003": "東日本旅客鉄道（旧国鉄）", "N05_004": "1910", "N05_005b": "1956", "N05_005e": "1996", "N05_006": "EB03_16215076", "N05_007": null, "N05_008": null, "N05_009": null, 
"N05_011": "中軽井沢", "platform": "2", 
"desc":"1981（昭和56）年2月27日（金）<br>1308M 急行妙高4号：妙高高原→上野<br>？番線<br>1642　約60分遅着<br>女性20名の団体が乗車。ボックスも2名着席<br>1650　64分遅発", 
"img": [ ],
"hensei": "myoko4_shiga2_R.png",
"stopStation": "naka-karuizawa_station.jpg",
"character": "kuha169_right.png"
 }, "geometry": { "type": "Point", "coordinates": [ 138.593134, 36.347636 ] } },
{ "type": "Feature", "properties": { "N05_001": "2", "N05_002": "信越線", "N05_003": "東日本旅客鉄道（旧国鉄）", "N05_004": "1888", "N05_005b": "1950", "N05_005e": "1996", "N05_006": "EB03_16215073", "N05_007": null, "N05_008": null, "N05_009": null, 
"N05_011": "軽井沢", "platform": "1", 
"desc":"1981（昭和56）年2月27日（金）<br>1308M 妙高4号・志賀2号：妙高高原→上野<br>？番線<br>1659　68分遅延<br>EF63 1-EF63 14とEF63 23-EF63 22の重連2機あり<br>1704　68分遅発", 
"img": [ ],
"hensei": "myoko4_shiga2_R.png",
"stopStation": "karuizawa_station.jpg",
"character": "kuha169_right.png"
 }, "geometry": { "type": "Point", "coordinates": [ 138.634985, 36.34287 ] } },
{ "type": "Feature", "properties": { "N05_001": "2", "N05_002": "信越線", "N05_003": "東日本旅客鉄道（旧国鉄）", "N05_004": "1885", "N05_005b": "1950", "N05_005e": "9999", "N05_006": "EB03_16215072", "N05_007": null, "N05_008": null, "N05_009": null, 
"N05_011": "横川", "platform": "1", 
"desc":"1981（昭和56）年2月27日（金）<br>1308M 妙高4号・志賀2号：妙高高原→上野<br>？番線<br>1723　68分遅延<br>峠の釜めしが繁盛している。<br>1731　68分遅発", 
"img": [ ],
"hensei": "myoko4_shiga2_R.png",
"stopStation": "yokokawa_station.jpg",
"character": "kuha169_right.png"
 }, "geometry": { "type": "Point", "coordinates": [ 138.7379, 36.33597 ] } },
{ "type": "Feature", "properties": { "N05_001": "2", "N05_002": "高崎線", "N05_003": "東日本旅客鉄道（旧国鉄）", "N05_004": "1884", "N05_005b": "1950", "N05_005e": "9999", "N05_006": "EB03_13204019", "N05_007": null, "N05_008": null, "N05_009": null, 
"N05_011": "高崎", "platform": "8", 
"desc":"1981（昭和56）年2月27日（金）<br>1308M 妙高4号・志賀2号：妙高高原→上野<br>？番線<br>1758　67分遅延<br>横河を過ぎると行きはなく、一気に下りを疾走。女性団体は大騒音であった。高崎駅手前で架線のない上越新幹線高架橋と並走<br>1758　63分遅発", 
"img": [ ],
"hensei": "myoko4_shiga2_R.png",
"stopStation": "takasaki_station.jpg",
"character": "kuha169_right.png"
 }, "geometry": { "type": "Point", "coordinates": [ 139.012349, 36.322271 ] } },
{ "type": "Feature", "properties": { "N05_001": "2", "N05_002": "高崎線", "N05_003": "東日本旅客鉄道（旧国鉄）", "N05_004": "1883", "N05_005b": "1950", "N05_005e": "9999", "N05_006": "EB03_13204015", "N05_007": null, "N05_008": null, "N05_009": null, 
"N05_011": "本庄", "platform": "1", 
"desc":"1981（昭和56）年2月27日（金）<br>1308M 妙高4号・志賀2号：妙高高原→上野<br>？番線<br>1813　60分遅延<br>1814　60分遅発", 
"img": [ ],
"hensei": "myoko4_shiga2_R.png",
"stopStation": "honjo_station.jpg",
"character": "kuha169_right.png"
 }, "geometry": { "type": "Point", "coordinates": [ 139.188136, 36.236301 ] } },
{ "type": "Feature", "properties": { "N05_001": "2", "N05_002": "高崎線", "N05_003": "東日本旅客鉄道（旧国鉄）", "N05_004": "1883", "N05_005b": "1950", "N05_005e": "9999", "N05_006": "EB03_13204013", "N05_007": null, "N05_008": null, "N05_009": null, 
"N05_011": "深谷", "platform": "1", 
"desc":"1981（昭和56）年2月27日（金）<br>1308M 妙高4号・志賀2号：妙高高原→上野<br>？番線<br>1821　60分遅延<br>1822　59分遅発", 
"img": [ ],
"hensei": "myoko4_shiga2_R.png",
"stopStation": "fukaya_station.jpg",
"character": "kuha169_right.png"
 }, "geometry": { "type": "Point", "coordinates": [ 139.281345, 36.191345 ] } },
{ "type": "Feature", "properties": { "N05_001": "2", "N05_002": "高崎線", "N05_003": "東日本旅客鉄道（旧国鉄）", "N05_004": "1883", "N05_005b": "1950", "N05_005e": "9999", "N05_006": "EB03_13204011", "N05_007": null, "N05_008": null, "N05_009": null, 
"N05_011": "熊谷", "platform": "2", 
"desc":"1981（昭和56）年2月27日（金）<br>1308M 妙高4号・志賀2号：妙高高原→上野<br>？番線<br>1831　59分遅延<br>1832　60分遅発", 
"img": [ ],
"hensei": "myoko4_shiga2_R.png",
"stopStation": "kumagaya_station.jpg",
"character": "kuha169_right.png"
 }, "geometry": { "type": "Point", "coordinates": [ 139.389925, 36.13981 ] } },
{ "type": "Feature", "properties": { "N05_001": "2", "N05_002": "高崎線", "N05_003": "東日本旅客鉄道（旧国鉄）", "N05_004": "1885", "N05_005b": "1950", "N05_005e": "9999", "N05_006": "EB03_13204001", "N05_007": null, "N05_008": null, "N05_009": null, 
"N05_011": "大宮", "platform": "4", 
"desc":"1981（昭和56）年2月27日（金）<br>1308M 妙高4号・志賀2号：妙高高原→上野<br>？番線<br>1858　58分遅着", 
"img": [ ],
"hensei": "myoko4_shiga2_R.png",
"stopStation": "omiya_station.jpg",
"character": "kuha169_right.png"
 }, "geometry": { "type": "Point", "coordinates": [ 139.624276, 35.906342 ] } }
]
}
