{
"type": "FeatureCollection",
"name": "N05-24_Station2",
"crs": { "type": "name", "properties": { "name": "urn:ogc:def:crs:EPSG::6668" } },
"xy_coordinate_resolution": 1e-09,
"features": [
{ "type": "Feature", "properties": { "N05_001": "2", "N05_002": "北陸線", "N05_003": "西日本旅客鉄道（旧国鉄）", "N05_004": "1911", "N05_005b": "1950", "N05_005e": "2014", "N05_006": "EB03_16203080", "N05_007": null, "N05_008": null, "N05_009": null, "N05_011": "直江津" }, "geometry": { "type": "Point", "coordinates": [ 138.242233, 37.170258 ] } },
{ "type": "Feature", "properties": { "N05_001": "2", "N05_002": "信越線", "N05_003": "東日本旅客鉄道（旧国鉄）", "N05_004": "1928", "N05_005b": "1950", "N05_005e": "2001", "N05_006": "EB03_16215020", "N05_007": null, "N05_008": null, "N05_009": null, "N05_011": "春日山" }, "geometry": { "type": "Point", "coordinates": [ 138.235186, 37.144431 ] } },
{ "type": "Feature", "properties": { "N05_001": "2", "N05_002": "信越線", "N05_003": "東日本旅客鉄道（旧国鉄）", "N05_004": "1886", "N05_005b": "1950", "N05_005e": "2014", "N05_006": "EB03_16215019", "N05_007": null, "N05_008": null, "N05_009": null, "N05_011": "高田" }, "geometry": { "type": "Point", "coordinates": [ 138.241965, 37.11462 ] } },
{ "type": "Feature", "properties": { "N05_001": "2", "N05_002": "信越線", "N05_003": "東日本旅客鉄道（旧国鉄）", "N05_004": "1961", "N05_005b": "1961", "N05_005e": "2014", "N05_006": "EB03_16215018", "N05_007": null, "N05_008": null, "N05_009": null, "N05_011": "南高田" }, "geometry": { "type": "Point", "coordinates": [ 138.243035, 37.096795 ] } },
{ "type": "Feature", "properties": { "N05_001": "2", "N05_002": "信越線", "N05_003": "東日本旅客鉄道（旧国鉄）", "N05_004": "1921", "N05_005b": "1950", "N05_005e": "2013", "N05_006": "EB03_16215017", "N05_007": null, "N05_008": null, "N05_009": null, "N05_011": "脇野田" }, "geometry": { "type": "Point", "coordinates": [ 138.249545, 37.08174 ] } },
{ "type": "Feature", "properties": { "N05_001": "2", "N05_002": "信越線", "N05_003": "東日本旅客鉄道（旧国鉄）", "N05_004": "1955", "N05_005b": "1955", "N05_005e": "2014", "N05_006": "EB03_16215016", "N05_007": null, "N05_008": null, "N05_009": null, "N05_011": "北新井" }, "geometry": { "type": "Point", "coordinates": [ 138.25771, 37.0529 ] } },
{ "type": "Feature", "properties": { "N05_001": "2", "N05_002": "信越線", "N05_003": "東日本旅客鉄道（旧国鉄）", "N05_004": "1886", "N05_005b": "1950", "N05_005e": "2014", "N05_006": "EB03_16215015", "N05_007": null, "N05_008": null, "N05_009": null, "N05_011": "新井" }, "geometry": { "type": "Point", "coordinates": [ 138.25563, 37.026735 ] } },
{ "type": "Feature", "properties": { "N05_001": "2", "N05_002": "信越線", "N05_003": "東日本旅客鉄道（旧国鉄）", "N05_004": "1911", "N05_005b": "1950", "N05_005e": "2014", "N05_006": "EB03_16215014", "N05_007": null, "N05_008": null, "N05_009": null, "N05_011": "二本木" }, "geometry": { "type": "Point", "coordinates": [ 138.232615, 36.989579 ] } },
{ "type": "Feature", "properties": { "N05_001": "2", "N05_002": "信越線", "N05_003": "東日本旅客鉄道（旧国鉄）", "N05_004": "1886", "N05_005b": "1950", "N05_005e": "1984", "N05_006": "EB03_16215013", "N05_007": null, "N05_008": null, "N05_009": null, "N05_011": "関山" }, "geometry": { "type": "Point", "coordinates": [ 138.224474, 36.936853 ] } },
{ "type": "Feature", "properties": { "N05_001": "2", "N05_002": "信越線", "N05_003": "東日本旅客鉄道（旧国鉄）", "N05_004": "1888", "N05_005b": "1969", "N05_005e": "2014", "N05_006": "EB03_16215012", "N05_007": null, "N05_008": null, "N05_009": null, "N05_011": "妙高高原" }, "geometry": { "type": "Point", "coordinates": [ 138.212185, 36.872305 ] } }
]
}
