{
"type": "FeatureCollection",
"name": "N05-24_RailroadSection2",
"crs": { "type": "name", "properties": { "name": "urn:ogc:def:crs:EPSG::6668" } },
"xy_coordinate_resolution": 1e-09,
"features": [
{ "type": "Feature", 
"properties": { "N05_001": "2", "N05_002": "東北線", "N05_003": "東日本旅客鉄道（旧国鉄）", "N05_004": "1883", "N05_005b": "1968", "N05_005e": "1984", "N05_006": "EB02_12207", "N05_007": null, "N05_008": null, "N05_009": null, "N05_010": null }, 
"geometry": { "type": "LineString", "coordinates": [
    [ 137.86258, 37.043805 ], [ 137.86107, 37.04338 ], [ 137.86085, 37.04331 ], [ 137.85954, 37.04296 ], [ 137.85908, 37.04283 ], [ 137.85739, 37.04238 ], [ 137.85677, 37.04219 ], [ 137.85643, 37.0421 ], [ 137.85591, 37.04197 ], [ 137.85551, 37.04182 ], [ 137.855, 37.04159 ], [ 137.85428, 37.04116 ], [ 137.85359, 37.04073 ], [ 137.85345, 37.04063 ], [ 137.85331, 37.04055 ], [ 137.85315, 37.04042 ], [ 137.85213, 37.03969 ], [ 137.84665, 37.0358 ], [ 137.8451, 37.0347 ], [ 137.84496, 37.03461 ], [ 137.84473, 37.03445 ], [ 137.84394, 37.03392 ], [ 137.8429, 37.03336 ], [ 137.84258, 37.03319 ], [ 137.84123, 37.03258 ], [ 137.83987, 37.03195 ], [ 137.83861, 37.03138 ], [ 137.83613, 37.03024 ], [ 137.83587, 37.03012 ], [ 137.8355, 37.02995 ], [ 137.83465, 37.02956 ], [ 137.83441, 37.02944 ], [ 137.83334, 37.02898 ], [ 137.83299, 37.02885 ], [ 137.83262, 37.02875 ], [ 137.83222, 37.02864 ], [ 137.83173, 37.02854 ], [ 137.83093, 37.02848 ], [ 137.82987, 37.02843 ], [ 137.82927, 37.02842 ], [ 137.82796, 37.02844 ], [ 137.82457, 37.02848 ], [ 137.82361, 37.02847 ], [ 137.82322, 37.02844 ], [ 137.82266, 37.02838 ], [ 137.8223, 37.02832 ], [ 137.82214, 37.0283 ], [ 137.82179, 37.02823 ], [ 137.82131, 37.02812 ], [ 137.82101, 37.02803 ], [ 137.82066, 37.02791 ], [ 137.82035, 37.02779 ], [ 137.8195, 37.02746 ], [ 137.81852, 37.02707 ], [ 137.81539, 37.02583 ], [ 137.8148, 37.02568 ], [ 137.81279, 37.02524 ], [ 137.81201, 37.02506 ], [ 137.81169, 37.02499 ], [ 137.8106, 37.02474 ], [ 137.81033, 37.02467 ], [ 137.80945, 37.02447 ], [ 137.80894, 37.02436 ], [ 137.80858, 37.02431 ], [ 137.80837, 37.02428 ], [ 137.80777, 37.02423 ], [ 137.80708, 37.02421 ], [ 137.8063, 37.0242 ], [ 137.80557, 37.02427 ], [ 137.8048, 37.02434 ], [ 137.80415, 37.02438 ], [ 137.80356, 37.02438 ], [ 137.80319, 37.02434 ], [ 137.80277, 37.02426 ], [ 137.802, 37.02406 ], [ 137.80158, 37.02393 ], [ 137.80102, 37.02375 ], [ 137.79951, 37.0232 ], [ 137.79829, 37.02277 ], [ 137.79792, 37.02266 ], [ 137.79769, 37.02259 ], [ 137.79746, 37.02256 ], [ 137.79706, 37.02253 ], [ 137.795815, 37.0225 ], [ 137.79457, 37.02247 ], [ 137.79179, 37.02245 ], [ 137.79145, 37.02244 ], [ 137.79011, 37.02243 ], [ 137.78926, 37.02242 ], [ 137.78809, 37.02239 ], [ 137.78774, 37.02235 ], [ 137.78701, 37.02226 ], [ 137.78658, 37.02217 ], [ 137.78595, 37.02201 ], [ 137.78465, 37.02172 ], [ 137.7827, 37.02124 ], [ 137.78151, 37.02097 ], [ 137.77987, 37.02057 ], [ 137.77752, 37.01993 ], [ 137.77628, 37.01958 ], [ 137.77583, 37.01942 ], [ 137.77546, 37.01927 ], [ 137.77275, 37.01815 ], [ 137.77207, 37.01795 ], [ 137.77119, 37.01769 ], [ 137.77024, 37.0174 ], [ 137.76881, 37.01697 ], [ 137.76626, 37.01611 ], [ 137.76526, 37.01577 ], [ 137.76239, 37.01481 ], [ 137.76119, 37.01442 ], [ 137.7604, 37.01418 ], [ 137.75975, 37.01395 ], [ 137.75907, 37.01366 ], [ 137.75783, 37.01316 ], [ 137.7575, 37.01306 ], [ 137.75723, 37.01294 ], [ 137.75702, 37.01286 ], [ 137.75621, 37.01257 ], [ 137.75508, 37.01216 ], [ 137.75337, 37.01154 ], [ 137.75208, 37.01106 ], [ 137.74779, 37.00949 ], [ 137.74691, 37.00917 ], [ 137.74594, 37.00878 ], [ 137.74441, 37.00821 ], [ 137.74327, 37.00788 ], [ 137.74226, 37.00766 ], [ 137.74074, 37.00749 ], [ 137.74063, 37.00748 ], [ 137.74043, 37.00744 ], [ 137.73983, 37.00732 ], [ 137.73955, 37.00726 ], [ 137.73913, 37.00717 ], [ 137.73863, 37.00703 ], [ 137.73803, 37.00685 ], [ 137.73743, 37.00667 ], [ 137.73666, 37.00645 ], [ 137.73637, 37.00635 ], [ 137.73615, 37.00627 ], [ 137.7359, 37.00617 ], [ 137.73571, 37.00607 ], [ 137.73548, 37.00594 ], [ 137.73514, 37.00572 ], [ 137.7349, 37.00555 ], [ 137.73461, 37.00532 ], [ 137.73381, 37.00464 ], [ 137.73316, 37.00411 ], [ 137.73259, 37.00363 ], [ 137.73233, 37.00343 ], [ 137.73198, 37.00325 ], [ 137.73172, 37.00311 ], [ 137.73157, 37.00303 ], [ 137.73093, 37.00253 ], [ 137.73053, 37.00219 ], [ 137.73017, 37.00188 ], [ 137.72975, 37.00151 ], [ 137.72934, 37.00115 ], [ 137.72887, 37.00076 ], [ 137.72853, 37.00047 ], [ 137.72841, 37.00037 ], [ 137.7281, 37.00016 ], [ 137.72796, 37.00007 ], [ 137.72756, 36.99989 ], [ 137.72724, 36.99975 ], [ 137.72705, 36.99968 ], [ 137.72679, 36.99959 ], [ 137.7265, 36.99949 ], [ 137.72633, 36.99943 ], [ 137.72604, 36.99933 ], [ 137.72599, 36.99932 ], [ 137.72578, 36.99927 ], [ 137.72559, 36.99922 ], [ 137.72531, 36.99917 ], [ 137.72476, 36.99908 ], [ 137.72433, 36.99902 ], [ 137.72407, 36.999 ], [ 137.7236, 36.99896 ], [ 137.72299, 36.99892 ], [ 137.72241, 36.99889 ], [ 137.72184, 36.99888 ], [ 137.72125, 36.99885 ], [ 137.72068, 36.99883 ], [ 137.72016, 36.9988 ], [ 137.71956, 36.99877 ], [ 137.71903, 36.99876 ], [ 137.71848, 36.99873 ], [ 137.71794, 36.9987 ], [ 137.7174, 36.99869 ], [ 137.71719, 36.99867 ], [ 137.71523, 36.99853 ], [ 137.71497, 36.9985 ], [ 137.71486, 36.99849 ], [ 137.71476, 36.99849 ], [ 137.71448, 36.99846 ], [ 137.71427, 36.99844 ], [ 137.71409, 36.9984 ], [ 137.71381, 36.99833 ], [ 137.71353, 36.99825 ], [ 137.71315, 36.99813 ], [ 137.71287, 36.99803 ], [ 137.71252, 36.99791 ], [ 137.71217, 36.99777 ], [ 137.70975, 36.99691 ], [ 137.70814, 36.99636 ], [ 137.70762, 36.99617 ], [ 137.70748, 36.99612 ], [ 137.70702, 36.99591 ], [ 137.70658, 36.9957 ], [ 137.70612, 36.99548 ], [ 137.7056, 36.99524 ], [ 137.70513, 36.99502 ], [ 137.70468, 36.9948 ], [ 137.70417, 36.99456 ], [ 137.70347, 36.99419 ], [ 137.70317, 36.99406 ], [ 137.70264, 36.99383 ], [ 137.70208, 36.99359 ], [ 137.70157, 36.99335 ], [ 137.70108, 36.99313 ], [ 137.70057, 36.99292 ], [ 137.70002, 36.99269 ], [ 137.69951, 36.99252 ], [ 137.69899, 36.99237 ], [ 137.69844, 36.9922 ], [ 137.6979, 36.99204 ], [ 137.69742, 36.99191 ], [ 137.697, 36.9918 ], [ 137.69677, 36.99173 ], [ 137.69651, 36.99166 ], [ 137.69595, 36.99151 ], [ 137.6952, 36.99131 ], [ 137.69479, 36.99119 ], [ 137.69435, 36.99107 ], [ 137.69378, 36.99092 ], [ 137.69319, 36.99076 ], [ 137.69293, 36.99068 ], [ 137.69269, 36.99061 ], [ 137.69218, 36.99048 ], [ 137.69163, 36.99032 ], [ 137.69111, 36.99018 ], [ 137.69059, 36.99003 ], [ 137.69009, 36.9899 ], [ 137.68958, 36.98976 ], [ 137.68905, 36.98962 ], [ 137.68852, 36.98946 ], [ 137.68795, 36.98931 ], [ 137.6874, 36.98917 ], [ 137.68686, 36.98902 ], [ 137.68633, 36.98887 ], [ 137.68584, 36.98874 ], [ 137.68524, 36.98857 ], [ 137.68473, 36.98844 ], [ 137.6842, 36.9883 ], [ 137.68365, 36.98815 ], [ 137.68307, 36.98799 ], [ 137.68208, 36.98771 ], [ 137.68095, 36.9874 ], [ 137.67993, 36.98712 ], [ 137.67832, 36.98668 ], [ 137.67728, 36.9864 ], [ 137.67521, 36.98583 ], [ 137.67474, 36.9857 ], [ 137.67407, 36.98551 ], [ 137.67253, 36.98509 ], [ 137.67083, 36.98462 ], [ 137.67034, 36.98449 ], [ 137.66979, 36.98434 ], [ 137.66929, 36.9842 ], [ 137.66872, 36.98405 ], [ 137.6682, 36.9839 ], [ 137.66768, 36.98376 ], [ 137.66715, 36.98361 ], [ 137.66659, 36.98346 ], [ 137.66608, 36.98332 ], [ 137.66556, 36.98318 ], [ 137.66499, 36.98302 ], [ 137.66447, 36.98287 ], [ 137.66394, 36.98272 ], [ 137.66338, 36.98257 ], [ 137.66286, 36.98243 ], [ 137.66234, 36.98229 ], [ 137.66184, 36.98215 ], [ 137.66127, 36.982 ], [ 137.66074, 36.98185 ], [ 137.66024, 36.98171 ], [ 137.65968, 36.98156 ], [ 137.65929, 36.98146 ], [ 137.65914, 36.98141 ], [ 137.65861, 36.98129 ], [ 137.65808, 36.98117 ], [ 137.65749, 36.98104 ], [ 137.65693, 36.98093 ], [ 137.65636, 36.98084 ], [ 137.65584, 36.98078 ], [ 137.65531, 36.98074 ], [ 137.65453, 36.98069 ], [ 137.65326, 36.98061 ], [ 137.65204, 36.98054 ], [ 137.650485, 36.980445 ], [ 137.64893, 36.98035 ], [ 137.64859, 36.98035 ], [ 137.64794, 36.98033 ], [ 137.64707, 36.98027 ], [ 137.64612, 36.9802 ], [ 137.64466, 36.9801 ], [ 137.64387, 36.98005 ], [ 137.64355, 36.98002 ], [ 137.64321, 36.97999 ], [ 137.64267, 36.97995 ], [ 137.6421, 36.9799 ], [ 137.64177, 36.97985 ], [ 137.64095, 36.97977 ], [ 137.64033, 36.97969 ], [ 137.63955, 36.97961 ], [ 137.63919, 36.97956 ], [ 137.63885, 36.97951 ], [ 137.63826, 36.97944 ], [ 137.63791, 36.97939 ], [ 137.63783, 36.97938 ], [ 137.63743, 36.97932 ], [ 137.63678, 36.97922 ], [ 137.63628, 36.97915 ], [ 137.63583, 36.97908 ], [ 137.63538, 36.97902 ], [ 137.63451, 36.97889 ], [ 137.63284, 36.97865 ], [ 137.63208, 36.97853 ], [ 137.63167, 36.97848 ], [ 137.63118, 36.9784 ], [ 137.63059, 36.97831 ], [ 137.63025, 36.97826 ], [ 137.62965, 36.97817 ], [ 137.62913, 36.97809 ], [ 137.62881, 36.97804 ], [ 137.62814, 36.97795 ], [ 137.62772, 36.97788 ], [ 137.62737, 36.97783 ], [ 137.62689, 36.97775 ], [ 137.62645, 36.97769 ], [ 137.62595, 36.97762 ], [ 137.62555, 36.97756 ], [ 137.62502, 36.97748 ], [ 137.62458, 36.97741 ], [ 137.624, 36.97733 ], [ 137.62361, 36.97727 ], [ 137.62349, 36.97725 ], [ 137.62316, 36.9772 ], [ 137.62237, 36.97707 ], [ 137.62192, 36.977 ], [ 137.61947, 36.97663 ], [ 137.61738, 36.97635 ], [ 137.61534, 36.97608 ], [ 137.61326, 36.9758 ], [ 137.6118, 36.97559 ], [ 137.61119, 36.97551 ], [ 137.60908, 36.97521 ], [ 137.60709, 36.97492 ], [ 137.60508, 36.97465 ], [ 137.60302, 36.97437 ], [ 137.60088, 36.97409 ], [ 137.5995, 36.973875 ]
    ] } }
]
}
