{
"type": "FeatureCollection",
"name": "N05-24_Station2",
"crs": { "type": "name", "properties": { "name": "urn:ogc:def:crs:EPSG::6668" } },
"xy_coordinate_resolution": 1e-09,
"features": [
{ "type": "Feature", "properties": { "N05_001": "2", "N05_002": "北陸線", "N05_003": "西日本旅客鉄道（旧国鉄）", "N05_004": "1912", "N05_005b": "1950", "N05_005e": "2014", "N05_006": "EB03_16203071", "N05_007": null, "N05_008": null, "N05_009": null, "N05_011": "糸魚川" }, "geometry": { "type": "Point", "coordinates": [ 137.86258, 37.043805 ] } },
{ "type": "Feature", "properties": { "N05_001": "2", "N05_002": "北陸線", "N05_003": "西日本旅客鉄道（旧国鉄）", "N05_004": "1912", "N05_005b": "1950", "N05_005e": "2014", "N05_006": "EB03_16203070", "N05_007": null, "N05_008": null, "N05_009": null, "N05_011": "青海" }, "geometry": { "type": "Point", "coordinates": [ 137.795815, 37.0225 ] } },
{ "type": "Feature", "properties": { "N05_001": "2", "N05_002": "北陸線", "N05_003": "西日本旅客鉄道（旧国鉄）", "N05_004": "1912", "N05_005b": "1950", "N05_005e": "2014", "N05_006": "EB03_16203069", "N05_007": null, "N05_008": null, "N05_009": null, "N05_011": "親不知" }, "geometry": { "type": "Point", "coordinates": [ 137.73803, 37.00685 ] } },
{ "type": "Feature", "properties": { "N05_001": "2", "N05_002": "北陸線", "N05_003": "西日本旅客鉄道（旧国鉄）", "N05_004": "1912", "N05_005b": "1950", "N05_005e": "2014", "N05_006": "EB03_16203068", "N05_007": null, "N05_008": null, "N05_009": null, "N05_011": "市振" }, "geometry": { "type": "Point", "coordinates": [ 137.650485, 36.980445 ] } },
{ "type": "Feature", "properties": { "N05_001": "2", "N05_002": "北陸線", "N05_003": "西日本旅客鉄道（旧国鉄）", "N05_004": "1957", "N05_005b": "1957", "N05_005e": "2014", "N05_006": "EB03_16203067", "N05_007": null, "N05_008": null, "N05_009": null, "N05_011": "越中宮崎" }, "geometry": { "type": "Point", "coordinates": [ 137.5995, 36.973875 ] } }
]
}
