{
"type": "FeatureCollection",
"name": "N05-24_Station2",
"crs": { "type": "name", "properties": { "name": "urn:ogc:def:crs:EPSG::6668" } },
"xy_coordinate_resolution": 1e-09,
"features": [
{ "type": "Feature", "properties": { "N05_001": "2", "N05_002": "北陸線", "N05_003": "西日本旅客鉄道（旧国鉄）", "N05_004": "1912", "N05_005b": "1950", "N05_005e": "2014", "N05_006": "EB03_16203071", "N05_007": null, "N05_008": null, "N05_009": null, 
"N05_011": "糸魚川", "platform": "2", 
"desc": "1981（昭和56）年2月27日（金）<br>1226ㇾ：糸魚川→富山<br>2?番線<br>北陸、能登通過待ちにより1226ㇾは遅発。ラッセル車入線。<br>?番線<br>0649　13分遅発", 
"img": [ "itoigawa_11.jpg", "itoigawa_12.png", "itoigawa_13.jpg", "itoigawa_14.jpg", "itoigawa_15.png", "itoigawa_16.jpg", "itoigawa_17.jpg", "itoigawa_18.jpg" ],
"hensei": "1226r.jpg",
"stopStation": "itoigawa_station.jpg",
"character": "EF70_left.png"
}, "geometry": { "type": "Point", "coordinates": [ 137.86258, 37.043805 ] } },
{ "type": "Feature", "properties": { "N05_001": "2", "N05_002": "北陸線", "N05_003": "西日本旅客鉄道（旧国鉄）", "N05_004": "1912", "N05_005b": "1950", "N05_005e": "2014", "N05_006": "EB03_16203069", "N05_007": null, "N05_008": null, "N05_009": null, 
"N05_011": "親不知", "platform": "駅舎側", 
"desc":"1981（昭和56）年2月27日（金）<br>1226ㇾ：糸魚川→富山<br>？番線<br>0715　26分遅着<br>『能登（客車はナハ10 2065）が市振で停車中。魚津ー黒部間で踏切事故、遅れるもよう』と車内放送。まる1時間停車。停車中下り列車が通らなかったので、当初乗車予定の521ㇾは遅延で越中宮崎あたりで交換可能と予想。乗れれば直江津で予定より1列車早い妙高2号に乗れると判断し、そのまま富山行1226ㇾで越中宮崎に向かうことに。<br>親不知駅は跨線橋はなく構内踏切のみ。改札口を通ると階段を降り線路をまたいでホームに移動する<br>地元高校生たちは帰り支度で1226ㇾに乗車せず車内はガラガラ。親不知駅にみどりの窓口はなし。<br>0816　87分遅発", 
"img": [ "oyashirazu_11.png", "oyashirazu_12.jpg", "oyashirazu_13.jpg", "oyashirazu_14.png", "oyashirazu_15.jpg" ],
"hensei": "1226r.jpg",
"stopStation": "oyashirazu_station.jpg",
"character": "EF70_left.png"
}, "geometry": { "type": "Point", "coordinates": [ 137.73803, 37.00685 ] } },
{ "type": "Feature", "properties": { "N05_001": "2", "N05_002": "北陸線", "N05_003": "西日本旅客鉄道（旧国鉄）", "N05_004": "1957", "N05_005b": "1957", "N05_005e": "2014", "N05_006": "EB03_16203067", "N05_007": null, "N05_008": null, "N05_009": null, 
"N05_011": "越中宮崎", "platform": "（駅舎）反対側", 
"desc": "1981（昭和56）年2月27日（金）<br>1226ㇾ：糸魚川→富山<br>？番線<br>0839　96分遅着", 
"img": [ "etchu-miyazaki_11.jpg"],
"hensei": "1226r.jpg",
"stopStation": "etchu-miyazaki_station.jpg",
"character": "EF70_left.png"
}, "geometry": { "type": "Point", "coordinates": [ 137.5995, 36.973875 ] } }
]}
