{
"type": "FeatureCollection",
"name": "N05-24_RailroadSection2",
"crs": { "type": "name", "properties": { "name": "urn:ogc:def:crs:EPSG::6668" } },
"xy_coordinate_resolution": 1e-09,
"features": [
{ "type": "Feature", "properties": { "N05_001": "2", "N05_002": "信越線", "N05_003": "東日本旅客鉄道（旧国鉄）", "N05_004": "1885", "N05_005b": "1958", "N05_005e": "1961", "N05_006": "EB02_16215", "N05_007": null, "N05_008": null, "N05_009": null, "N05_010": null }, "geometry": { "type": "LineString", "coordinates": [ 
[ 139.657145, 35.858565 ], [ 139.65763, 35.85777 ], [ 139.65775, 35.8576 ], [ 139.6579, 35.85736 ], [ 139.6581, 35.85709 ], [ 139.65845, 35.85665 ], [ 139.6588, 35.85624 ], [ 139.65917, 35.85581 ], [ 139.65945, 35.85555 ], [ 139.66043, 35.85475 ], [ 139.66174, 35.85376 ], [ 139.662, 35.85358 ], [ 139.66322, 35.85267 ], [ 139.66356, 35.85245 ], [ 139.66391, 35.85222 ], [ 139.66454, 35.8518 ], [ 139.66483, 35.8516 ], [ 139.66512, 35.85139 ], [ 139.66555, 35.85101 ], [ 139.66635, 35.85033 ], [ 139.66701, 35.84974 ], [ 139.6676, 35.84922 ], [ 139.668615, 35.848335 ], [ 139.66963, 35.84745 ], [ 139.66955, 35.84741 ], [ 139.66967, 35.8473 ], [ 139.67064, 35.84647 ], [ 139.67092, 35.84623 ], [ 139.67228, 35.84508 ], [ 139.67326, 35.84424 ], [ 139.67518, 35.84262 ], [ 139.67552, 35.84232 ], [ 139.67593, 35.84193 ], [ 139.67641, 35.84149 ], [ 139.67728, 35.84067 ], [ 139.67815, 35.83985 ], [ 139.67817, 35.83984 ], [ 139.67899, 35.83905 ], [ 139.68004, 35.83803 ], [ 139.68073, 35.83737 ], [ 139.68166, 35.83655 ], [ 139.68233, 35.83594 ], [ 139.68335, 35.8349 ], [ 139.68489, 35.83334 ], [ 139.68621, 35.83199 ], [ 139.68769, 35.83059 ], [ 139.6893, 35.82901 ], [ 139.68967, 35.82865 ], [ 139.690415, 35.82793 ], [ 139.69116, 35.82721 ], [ 139.69191, 35.82643 ], [ 139.69254, 35.82577 ], [ 139.69307, 35.82525 ], [ 139.69356, 35.82481 ], [ 139.69402, 35.82445 ], [ 139.69481, 35.82385 ], [ 139.69564, 35.82325 ], [ 139.69653, 35.8226 ], [ 139.69735, 35.82202 ], [ 139.6982, 35.8214 ], [ 139.69895, 35.82083 ], [ 139.69911, 35.82071 ], [ 139.69933, 35.8205 ], [ 139.6998, 35.82007 ], [ 139.7005, 35.81936 ], [ 139.7014, 35.81847 ], [ 139.70227, 35.81759 ], [ 139.70272, 35.81714 ], [ 139.70375, 35.81613 ], [ 139.70436, 35.815515 ], [ 139.70497, 35.8149 ], [ 139.70685, 35.81297 ], [ 139.70769, 35.81208 ], [ 139.70849, 35.81127 ], [ 139.70934, 35.81042 ], [ 139.71016, 35.8096 ], [ 139.71178, 35.80799 ], [ 139.7119, 35.80787 ], [ 139.71366, 35.80612 ], [ 139.71464, 35.80519 ], [ 139.71504, 35.80476 ], [ 139.71588, 35.80393 ], [ 139.71633, 35.80347 ], [ 139.71659, 35.80313 ], [ 139.71698, 35.80267 ], [ 139.71716, 35.80237 ], [ 139.71735, 35.80207 ], [ 139.717499, 35.801824 ], [ 139.71758, 35.80169 ], [ 139.71788, 35.80104 ], [ 139.71793, 35.80093 ], [ 139.7181, 35.80041 ], [ 139.71817, 35.80016 ], [ 139.71824, 35.79971 ], [ 139.71832, 35.799 ], [ 139.71833, 35.79849 ], [ 139.71828, 35.79804 ], [ 139.71805, 35.79654 ], [ 139.718, 35.79624 ], [ 139.71799, 35.79618 ], [ 139.71794, 35.7951 ], [ 139.71789, 35.79469 ], [ 139.71758, 35.79191 ], [ 139.71721, 35.78851 ], [ 139.7172, 35.78835 ], [ 139.71709, 35.78734 ], [ 139.71708, 35.78719 ], [ 139.71702, 35.7866 ], [ 139.71701, 35.78653 ], [ 139.71699, 35.78622 ], [ 139.71699, 35.78615 ], [ 139.71701, 35.78585 ], [ 139.71711, 35.7854 ], [ 139.71723, 35.78499 ], [ 139.71743, 35.78445 ], [ 139.71763, 35.784 ], [ 139.71791, 35.78334 ], [ 139.71817, 35.78277 ], [ 139.7187, 35.78175 ], [ 139.71895, 35.78125 ], [ 139.71919, 35.78075 ], [ 139.71947, 35.78026 ], [ 139.71978, 35.77977 ], [ 139.72015, 35.77916 ], [ 139.72046, 35.77867 ], [ 139.72072, 35.77833 ], [ 139.72111, 35.77783 ], [ 139.721243, 35.777635 ]
 ] } }
]
}
