{
"type": "FeatureCollection",
"name": "N05-24_Station2",
"crs": { "type": "name", "properties": { "name": "urn:ogc:def:crs:EPSG::6668" } },
"xy_coordinate_resolution": 1e-09,
"features": [
{ "type": "Feature", "properties": { "N05_001": "2", "N05_002": "信越線", "N05_003": "東日本旅客鉄道（旧国鉄）", "N05_004": "1888", "N05_005b": "1950", "N05_005e": "9999", "N05_006": "EB03_16215001", "N05_007": null, "N05_008": null, "N05_009": null, "N05_011": "篠ノ井" }, "geometry": { "type": "Point", "coordinates": [ 138.138127, 36.577106 ] } },
{ "type": "Feature", "properties": { "N05_001": "2", "N05_002": "信越線", "N05_003": "東日本旅客鉄道（旧国鉄）", "N05_004": "1888", "N05_005b": "1950", "N05_005e": "1996", "N05_006": "EB03_16215091", "N05_007": null, "N05_008": null, "N05_009": null, "N05_011": "屋代" }, "geometry": { "type": "Point", "coordinates": [ 138.128162, 36.532556 ] } },
{ "type": "Feature", "properties": { "N05_001": "2", "N05_002": "信越線", "N05_003": "東日本旅客鉄道（旧国鉄）", "N05_004": "1912", "N05_005b": "1950", "N05_005e": "1996", "N05_006": "EB03_16215089", "N05_007": null, "N05_008": null, "N05_009": null, "N05_011": "戸倉" }, "geometry": { "type": "Point", "coordinates": [ 138.153054, 36.492968 ] } },
{ "type": "Feature", "properties": { "N05_001": "2", "N05_002": "信越線", "N05_003": "東日本旅客鉄道（旧国鉄）", "N05_004": "1888", "N05_005b": "1950", "N05_005e": "1996", "N05_006": "EB03_16215088", "N05_007": null, "N05_008": null, "N05_009": null, "N05_011": "坂城" }, "geometry": { "type": "Point", "coordinates": [ 138.18145, 36.46198 ] } },
{ "type": "Feature", "properties": { "N05_001": "2", "N05_002": "信越線", "N05_003": "東日本旅客鉄道（旧国鉄）", "N05_004": "1920", "N05_005b": "1956", "N05_005e": "1996", "N05_006": "EB03_16215086", "N05_007": null, "N05_008": null, "N05_009": null, "N05_011": "西上田" }, "geometry": { "type": "Point", "coordinates": [ 138.209055, 36.416875 ] } },
{ "type": "Feature", "properties": { "N05_001": "2", "N05_002": "信越線", "N05_003": "東日本旅客鉄道（旧国鉄）", "N05_004": "1888", "N05_005b": "1950", "N05_005e": "1996", "N05_006": "EB03_16215085", "N05_007": null, "N05_008": null, "N05_009": null, "N05_011": "上田" }, "geometry": { "type": "Point", "coordinates": [ 138.250258, 36.395752 ] } },
{ "type": "Feature", "properties": { "N05_001": "2", "N05_002": "信越線", "N05_003": "東日本旅客鉄道（旧国鉄）", "N05_004": "1896", "N05_005b": "1950", "N05_005e": "1996", "N05_006": "EB03_16215083", "N05_007": null, "N05_008": null, "N05_009": null, "N05_011": "大屋" }, "geometry": { "type": "Point", "coordinates": [ 138.29713, 36.36959 ] } },
{ "type": "Feature", "properties": { "N05_001": "2", "N05_002": "信越線", "N05_003": "東日本旅客鉄道（旧国鉄）", "N05_004": "1888", "N05_005b": "1950", "N05_005e": "1996", "N05_006": "EB03_16215082", "N05_007": null, "N05_008": null, "N05_009": null, "N05_011": "田中" }, "geometry": { "type": "Point", "coordinates": [ 138.32921, 36.354415 ] } },
{ "type": "Feature", "properties": { "N05_001": "2", "N05_002": "信越線", "N05_003": "東日本旅客鉄道（旧国鉄）", "N05_004": "1923", "N05_005b": "1950", "N05_005e": "1996", "N05_006": "EB03_16215081", "N05_007": null, "N05_008": null, "N05_009": null, "N05_011": "滋野" }, "geometry": { "type": "Point", "coordinates": [ 138.363941, 36.342325 ] } },
{ "type": "Feature", "properties": { "N05_001": "2", "N05_002": "信越線", "N05_003": "東日本旅客鉄道（旧国鉄）", "N05_004": "1888", "N05_005b": "1950", "N05_005e": "1996", "N05_006": "EB03_16215080", "N05_007": null, "N05_008": null, "N05_009": null, "N05_011": "小諸" }, "geometry": { "type": "Point", "coordinates": [ 138.422631, 36.325869 ] } },
{ "type": "Feature", "properties": { "N05_001": "2", "N05_002": "信越線", "N05_003": "東日本旅客鉄道（旧国鉄）", "N05_004": "1952", "N05_005b": "1952", "N05_005e": "1996", "N05_006": "EB03_16215079", "N05_007": null, "N05_008": null, "N05_009": null, "N05_011": "平原" }, "geometry": { "type": "Point", "coordinates": [ 138.45391, 36.308635 ] } },
{ "type": "Feature", "properties": { "N05_001": "2", "N05_002": "信越線", "N05_003": "東日本旅客鉄道（旧国鉄）", "N05_004": "1888", "N05_005b": "1950", "N05_005e": "1996", "N05_006": "EB03_16215078", "N05_007": null, "N05_008": null, "N05_009": null, "N05_011": "御代田" }, "geometry": { "type": "Point", "coordinates": [ 138.50632, 36.31899 ] } },
{ "type": "Feature", "properties": { "N05_001": "2", "N05_002": "信越線", "N05_003": "東日本旅客鉄道（旧国鉄）", "N05_004": "1923", "N05_005b": "1950", "N05_005e": "1996", "N05_006": "EB03_16215077", "N05_007": null, "N05_008": null, "N05_009": null, "N05_011": "信濃追分" }, "geometry": { "type": "Point", "coordinates": [ 138.558495, 36.33545 ] } },
{ "type": "Feature", "properties": { "N05_001": "2", "N05_002": "信越線", "N05_003": "東日本旅客鉄道（旧国鉄）", "N05_004": "1910", "N05_005b": "1956", "N05_005e": "1996", "N05_006": "EB03_16215076", "N05_007": null, "N05_008": null, "N05_009": null, "N05_011": "中軽井沢" }, "geometry": { "type": "Point", "coordinates": [ 138.593134, 36.347636 ] } },
{ "type": "Feature", "properties": { "N05_001": "2", "N05_002": "信越線", "N05_003": "東日本旅客鉄道（旧国鉄）", "N05_004": "1888", "N05_005b": "1950", "N05_005e": "1996", "N05_006": "EB03_16215073", "N05_007": null, "N05_008": null, "N05_009": null, "N05_011": "軽井沢" }, "geometry": { "type": "Point", "coordinates": [ 138.634985, 36.34287 ] } },
{ "type": "Feature", "properties": { "N05_001": "2", "N05_002": "信越線", "N05_003": "東日本旅客鉄道（旧国鉄）", "N05_004": "1885", "N05_005b": "1950", "N05_005e": "9999", "N05_006": "EB03_16215072", "N05_007": null, "N05_008": null, "N05_009": null, "N05_011": "横川" }, "geometry": { "type": "Point", "coordinates": [ 138.7379, 36.33597 ] } },
{ "type": "Feature", "properties": { "N05_001": "2", "N05_002": "信越線", "N05_003": "東日本旅客鉄道（旧国鉄）", "N05_004": "1965", "N05_005b": "1965", "N05_005e": "9999", "N05_006": "EB03_16215071", "N05_007": null, "N05_008": null, "N05_009": null, "N05_011": "西松井田" }, "geometry": { "type": "Point", "coordinates": [ 138.78663, 36.31608 ] } },
{ "type": "Feature", "properties": { "N05_001": "2", "N05_002": "信越線", "N05_003": "東日本旅客鉄道（旧国鉄）", "N05_004": "1885", "N05_005b": "1962", "N05_005e": "9999", "N05_006": "EB03_16215070", "N05_007": null, "N05_008": null, "N05_009": null, "N05_011": "松井田" }, "geometry": { "type": "Point", "coordinates": [ 138.797655, 36.309155 ] } },
{ "type": "Feature", "properties": { "N05_001": "2", "N05_002": "信越線", "N05_003": "東日本旅客鉄道（旧国鉄）", "N05_004": "1885", "N05_005b": "1950", "N05_005e": "9999", "N05_006": "EB03_16215069", "N05_007": null, "N05_008": null, "N05_009": null, "N05_011": "磯部" }, "geometry": { "type": "Point", "coordinates": [ 138.849675, 36.29837 ] } },
{ "type": "Feature", "properties": { "N05_001": "2", "N05_002": "信越線", "N05_003": "東日本旅客鉄道（旧国鉄）", "N05_004": "1885", "N05_005b": "1950", "N05_005e": "9999", "N05_006": "EB03_16215068", "N05_007": null, "N05_008": null, "N05_009": null, "N05_011": "安中" }, "geometry": { "type": "Point", "coordinates": [ 138.914485, 36.331655 ] } },
{ "type": "Feature", "properties": { "N05_001": "2", "N05_002": "信越線", "N05_003": "東日本旅客鉄道（旧国鉄）", "N05_004": "1924", "N05_005b": "1950", "N05_005e": "9999", "N05_006": "EB03_16215067", "N05_007": null, "N05_008": null, "N05_009": null, "N05_011": "群馬八幡" }, "geometry": { "type": "Point", "coordinates": [ 138.95749, 36.33766 ] } },
{ "type": "Feature", "properties": { "N05_001": "2", "N05_002": "信越線", "N05_003": "東日本旅客鉄道（旧国鉄）", "N05_004": "1885", "N05_005b": "1950", "N05_005e": "9999", "N05_006": "EB03_16215066", "N05_007": null, "N05_008": null, "N05_009": null, "N05_011": "北高崎" }, "geometry": { "type": "Point", "coordinates": [ 139.002384, 36.338495 ] } },
{ "type": "Feature", "properties": { "N05_001": "2", "N05_002": "高崎線", "N05_003": "東日本旅客鉄道（旧国鉄）", "N05_004": "1884", "N05_005b": "1950", "N05_005e": "9999", "N05_006": "EB03_13204019", "N05_007": null, "N05_008": null, "N05_009": null, "N05_011": "高崎" }, "geometry": { "type": "Point", "coordinates": [ 139.012349, 36.322271 ] } },
{ "type": "Feature", "properties": { "N05_001": "2", "N05_002": "高崎線", "N05_003": "東日本旅客鉄道（旧国鉄）", "N05_004": "1894", "N05_005b": "1950", "N05_005e": "9999", "N05_006": "EB03_13204018", "N05_007": null, "N05_008": null, "N05_009": null, "N05_011": "倉賀野" }, "geometry": { "type": "Point", "coordinates": [ 139.049435, 36.300292 ] } },
{ "type": "Feature", "properties": { "N05_001": "2", "N05_002": "高崎線", "N05_003": "東日本旅客鉄道（旧国鉄）", "N05_004": "1883", "N05_005b": "1950", "N05_005e": "9999", "N05_006": "EB03_13204017", "N05_007": null, "N05_008": null, "N05_009": null, "N05_011": "新町" }, "geometry": { "type": "Point", "coordinates": [ 139.105312, 36.273098 ] } },
{ "type": "Feature", "properties": { "N05_001": "2", "N05_002": "高崎線", "N05_003": "東日本旅客鉄道（旧国鉄）", "N05_004": "1897", "N05_005b": "1950", "N05_005e": "9999", "N05_006": "EB03_13204016", "N05_007": null, "N05_008": null, "N05_009": null, "N05_011": "神保原" }, "geometry": { "type": "Point", "coordinates": [ 139.149014, 36.253623 ] } },
{ "type": "Feature", "properties": { "N05_001": "2", "N05_002": "高崎線", "N05_003": "東日本旅客鉄道（旧国鉄）", "N05_004": "1883", "N05_005b": "1950", "N05_005e": "9999", "N05_006": "EB03_13204015", "N05_007": null, "N05_008": null, "N05_009": null, "N05_011": "本庄" }, "geometry": { "type": "Point", "coordinates": [ 139.188136, 36.236301 ] } },
{ "type": "Feature", "properties": { "N05_001": "2", "N05_002": "高崎線", "N05_003": "東日本旅客鉄道（旧国鉄）", "N05_004": "1909", "N05_005b": "1950", "N05_005e": "9999", "N05_006": "EB03_13204014", "N05_007": null, "N05_008": null, "N05_009": null, "N05_011": "岡部" }, "geometry": { "type": "Point", "coordinates": [ 139.237485, 36.205728 ] } },
{ "type": "Feature", "properties": { "N05_001": "2", "N05_002": "高崎線", "N05_003": "東日本旅客鉄道（旧国鉄）", "N05_004": "1883", "N05_005b": "1950", "N05_005e": "9999", "N05_006": "EB03_13204013", "N05_007": null, "N05_008": null, "N05_009": null, "N05_011": "深谷" }, "geometry": { "type": "Point", "coordinates": [ 139.281345, 36.191345 ] } },
{ "type": "Feature", "properties": { "N05_001": "2", "N05_002": "高崎線", "N05_003": "東日本旅客鉄道（旧国鉄）", "N05_004": "1909", "N05_005b": "1950", "N05_005e": "9999", "N05_006": "EB03_13204012", "N05_007": null, "N05_008": null, "N05_009": null, "N05_011": "籠原" }, "geometry": { "type": "Point", "coordinates": [ 139.33026, 36.17442 ] } },
{ "type": "Feature", "properties": { "N05_001": "2", "N05_002": "高崎線", "N05_003": "東日本旅客鉄道（旧国鉄）", "N05_004": "1883", "N05_005b": "1950", "N05_005e": "9999", "N05_006": "EB03_13204011", "N05_007": null, "N05_008": null, "N05_009": null, "N05_011": "熊谷" }, "geometry": { "type": "Point", "coordinates": [ 139.389925, 36.13981 ] } },
{ "type": "Feature", "properties": { "N05_001": "2", "N05_002": "高崎線", "N05_003": "東日本旅客鉄道（旧国鉄）", "N05_004": "1966", "N05_005b": "1966", "N05_005e": "9999", "N05_006": "EB03_13204010", "N05_007": null, "N05_008": null, "N05_009": null, "N05_011": "行田" }, "geometry": { "type": "Point", "coordinates": [ 139.432078, 36.113888 ] } },
{ "type": "Feature", "properties": { "N05_001": "2", "N05_002": "高崎線", "N05_003": "東日本旅客鉄道（旧国鉄）", "N05_004": "1885", "N05_005b": "1950", "N05_005e": "9999", "N05_006": "EB03_13204009", "N05_007": null, "N05_008": null, "N05_009": null, "N05_011": "吹上" }, "geometry": { "type": "Point", "coordinates": [ 139.453602, 36.102882 ] } },
{ "type": "Feature", "properties": { "N05_001": "2", "N05_002": "高崎線", "N05_003": "東日本旅客鉄道（旧国鉄）", "N05_004": "1883", "N05_005b": "1950", "N05_005e": "9999", "N05_006": "EB03_13204007", "N05_007": null, "N05_008": null, "N05_009": null, "N05_011": "鴻巣" }, "geometry": { "type": "Point", "coordinates": [ 139.509585, 36.05924 ] } },
{ "type": "Feature", "properties": { "N05_001": "2", "N05_002": "高崎線", "N05_003": "東日本旅客鉄道（旧国鉄）", "N05_004": "1928", "N05_005b": "1961", "N05_005e": "9999", "N05_006": "EB03_13204006", "N05_007": null, "N05_008": null, "N05_009": null, "N05_011": "北本" }, "geometry": { "type": "Point", "coordinates": [ 139.533555, 36.032186 ] } },
{ "type": "Feature", "properties": { "N05_001": "2", "N05_002": "高崎線", "N05_003": "東日本旅客鉄道（旧国鉄）", "N05_004": "1885", "N05_005b": "1950", "N05_005e": "9999", "N05_006": "EB03_13204005", "N05_007": null, "N05_008": null, "N05_009": null, "N05_011": "桶川" }, "geometry": { "type": "Point", "coordinates": [ 139.564215, 35.998435 ] } },
{ "type": "Feature", "properties": { "N05_001": "2", "N05_002": "高崎線", "N05_003": "東日本旅客鉄道（旧国鉄）", "N05_004": "1883", "N05_005b": "1950", "N05_005e": "9999", "N05_006": "EB03_13204003", "N05_007": null, "N05_008": null, "N05_009": null, "N05_011": "上尾" }, "geometry": { "type": "Point", "coordinates": [ 139.58881, 35.97302 ] } },
{ "type": "Feature", "properties": { "N05_001": "2", "N05_002": "高崎線", "N05_003": "東日本旅客鉄道（旧国鉄）", "N05_004": "1948", "N05_005b": "1950", "N05_005e": "9999", "N05_006": "EB03_13204002", "N05_007": null, "N05_008": null, "N05_009": null, "N05_011": "宮原" }, "geometry": { "type": "Point", "coordinates": [ 139.60952, 35.94053 ] } },
{ "type": "Feature", "properties": { "N05_001": "2", "N05_002": "高崎線", "N05_003": "東日本旅客鉄道（旧国鉄）", "N05_004": "1885", "N05_005b": "1950", "N05_005e": "9999", "N05_006": "EB03_13204001", "N05_007": null, "N05_008": null, "N05_009": null, "N05_011": "大宮" }, "geometry": { "type": "Point", "coordinates": [ 139.624276, 35.906342 ] } }
]
}
