{
"type": "FeatureCollection",
"name": "N05-24_Station2",
"crs": { "type": "name", "properties": { "name": "urn:ogc:def:crs:EPSG::6668" } },
"xy_coordinate_resolution": 1e-09,
"features": [
{ "type": "Feature", "properties": { "N05_001": "2", "N05_002": "信越線", "N05_003": "東日本旅客鉄道（旧国鉄）", "N05_004": "1888", "N05_005b": "1969", "N05_005e": "2014", "N05_006": "EB03_16215012", "N05_007": null, "N05_008": null, "N05_009": null, "N05_011": "妙高高原" }, "geometry": { "type": "Point", "coordinates": [ 138.212185, 36.872305 ] } },
{ "type": "Feature", "properties": { "N05_001": "2", "N05_002": "信越線", "N05_003": "東日本旅客鉄道（旧国鉄）", "N05_004": "1888", "N05_005b": "1968", "N05_005e": "2014", "N05_006": "EB03_16215011", "N05_007": null, "N05_008": null, "N05_009": null, "N05_011": "黒姫" }, "geometry": { "type": "Point", "coordinates": [ 138.19711, 36.80732 ] } },
{ "type": "Feature", "properties": { "N05_001": "2", "N05_002": "信越線", "N05_003": "東日本旅客鉄道（旧国鉄）", "N05_004": "1928", "N05_005b": "1950", "N05_005e": "2014", "N05_006": "EB03_16215010", "N05_007": null, "N05_008": null, "N05_009": null, "N05_011": "古間" }, "geometry": { "type": "Point", "coordinates": [ 138.230516, 36.792435 ] } },
{ "type": "Feature", "properties": { "N05_001": "2", "N05_002": "信越線", "N05_003": "東日本旅客鉄道（旧国鉄）", "N05_004": "1888", "N05_005b": "1950", "N05_005e": "2014", "N05_006": "EB03_16215009", "N05_007": null, "N05_008": null, "N05_009": null, "N05_011": "牟礼" }, "geometry": { "type": "Point", "coordinates": [ 138.24678, 36.753227 ] } },
{ "type": "Feature", "properties": { "N05_001": "2", "N05_002": "信越線", "N05_003": "東日本旅客鉄道（旧国鉄）", "N05_004": "1888", "N05_005b": "1950", "N05_005e": "2014", "N05_006": "EB03_16215008", "N05_007": null, "N05_008": null, "N05_009": null, "N05_011": "豊野" }, "geometry": { "type": "Point", "coordinates": [ 138.27556, 36.711095 ] } },
{ "type": "Feature", "properties": { "N05_001": "2", "N05_002": "信越線", "N05_003": "東日本旅客鉄道（旧国鉄）", "N05_004": "1958", "N05_005b": "1958", "N05_005e": "2014", "N05_006": "EB03_16215007", "N05_007": null, "N05_008": null, "N05_009": null, "N05_011": "三才" }, "geometry": { "type": "Point", "coordinates": [ 138.243981, 36.686641 ] } },
{ "type": "Feature", "properties": { "N05_001": "2", "N05_002": "信越線", "N05_003": "東日本旅客鉄道（旧国鉄）", "N05_004": "1898", "N05_005b": "1957", "N05_005e": "2014", "N05_006": "EB03_16215006", "N05_007": null, "N05_008": null, "N05_009": null, "N05_011": "北長野" }, "geometry": { "type": "Point", "coordinates": [ 138.22265, 36.66507 ] } },
{ "type": "Feature", "properties": { "N05_001": "2", "N05_002": "信越線", "N05_003": "東日本旅客鉄道（旧国鉄）", "N05_004": "1888", "N05_005b": "1950", "N05_005e": "9999", "N05_006": "EB03_16215005", "N05_007": null, "N05_008": null, "N05_009": null, "N05_011": "長野" }, "geometry": { "type": "Point", "coordinates": [ 138.18885, 36.64346 ] } }
]
}
