{
"type": "FeatureCollection",
"name": "N05-24_Station2",
"crs": { "type": "name", "properties": { "name": "urn:ogc:def:crs:EPSG::6668" } },
"xy_coordinate_resolution": 1e-09,
"features": [
{ "type": "Feature", "properties": { "N05_001": "2", "N05_002": "信越線", "N05_003": "東日本旅客鉄道（旧国鉄）", "N05_004": "1888", "N05_005b": "1969", "N05_005e": "2014", "N05_006": "EB03_16215012", "N05_007": null, "N05_008": null, "N05_009": null, 
"N05_011": "妙高高原", "platform": "3", 
"desc":"1981（昭和56）年2月27日（金）<br>2802D 急行赤倉：新潟→名古屋<br>？番線<br>大阪弁のヤングスキーヤーで一杯。入場券購入。マルスは新型。赤倉45分遅延との情報。信越線、春日山ー妙高高原間は単線と判明。<br>1245　37分遅着<br>1246　37分遅発<br>キハ58 753に乗車かなり混雑。摂南大学スキークラブの人が目前着席。", 
"img": [ ],
"hensei": "akakura_R.png",
"stopStation": "myokokogen_station.jpg",
"character": "kiha58.png"
 }, "geometry": { "type": "Point", "coordinates": [ 138.212185, 36.872305 ] } },
{ "type": "Feature", "properties": { "N05_001": "2", "N05_002": "信越線", "N05_003": "東日本旅客鉄道（旧国鉄）", "N05_004": "1888", "N05_005b": "1968", "N05_005e": "2014", "N05_006": "EB03_16215011", "N05_007": null, "N05_008": null, "N05_009": null, 
"N05_011": "黒姫", "platform": "1", 
"desc":"1981（昭和56）年2月27日（金）<br>2802D 急行赤倉：新潟→名古屋<br>？番線<br>1258　約35分遅延<br>妙高高原ー黒姫間は複線。<br>1259　37分遅発", 
"img": [ ],
"hensei": "akakura_R.png",
"stopStation": "kurohime_station.jpg",
"character": "kiha58.png"
 }, "geometry": { "type": "Point", "coordinates": [ 138.19711, 36.80732 ] } },
{ "type": "Feature", "properties": { "N05_001": "2", "N05_002": "信越線", "N05_003": "東日本旅客鉄道（旧国鉄）", "N05_004": "1888", "N05_005b": "1950", "N05_005e": "2014", "N05_006": "EB03_16215009", "N05_007": null, "N05_008": null, "N05_009": null, 
"N05_011": "牟礼", "platform": "（駅舎）反対側", 
"desc":"1981（昭和56）年2月27日（金）<br>2802D 急行赤倉：新潟→名古屋<br>（駅舎）反対側<br>1310　運転停車。妙高高原で折返し4号となる妙高3号と交換", 
"img": [ ],
"hensei": "akakura_R.png",
"stopStation": "mure_station.jpg",
"character": "kiha58.png"
 }, "geometry": { "type": "Point", "coordinates": [ 138.24678, 36.753227 ] } },
{ "type": "Feature", "properties": { "N05_001": "2", "N05_002": "信越線", "N05_003": "東日本旅客鉄道（旧国鉄）", "N05_004": "1888", "N05_005b": "1950", "N05_005e": "2014", "N05_006": "EB03_16215008", "N05_007": null, "N05_008": null, "N05_009": null, 
"N05_011": "豊野", "platform": "2", 
"desc":"1981（昭和56）年2月27日（金）<br>2802D 急行赤倉：新潟→名古屋<br>？番線<br>1318　遅着<br>白山1号と交換", 
"img": [ ],
"hensei": "akakura_R.png",
"stopStation": "toyono_station.jpg",
"character": "kiha58.png"
 }, "geometry": { "type": "Point", "coordinates": [ 138.27556, 36.711095 ] } },
{ "type": "Feature", "properties": { "N05_001": "2", "N05_002": "信越線", "N05_003": "東日本旅客鉄道（旧国鉄）", "N05_004": "1888", "N05_005b": "1950", "N05_005e": "9999", "N05_006": "EB03_16215005", "N05_007": null, "N05_008": null, "N05_009": null, 
"N05_011": "長野", "platform": "4", 
"desc":"1981（昭和56）年2月27日（金）<br>2802D 急行赤倉：新潟→名古屋<br>4番線<br>1330　32分遅着<br>大阪からのスキー客大部分下車。<br>1336　441M新宿発が到着し折返し434Mとなって発車<br>乗車予定1342M小諸行が既に到着しており白山4号発車待ち。白山4号が13:45着13:46発により、1342Mは13:51に発車とのアナウンス。", 
"img": [ ],
"hensei": "akakura_R.png",
"stopStation": "nagano_station.jpg",
"character": "kiha58.png"
 }, "geometry": { "type": "Point", "coordinates": [ 138.18885, 36.64346 ] } }
]
}
